{
  "version": 0.6,
  "generator": "Overpass API 0.7.62.1 084b4234",
  "osm3s": {
    "timestamp_osm_base": "2024-06-23T13:54:30Z",
    "copyright": "The data included in this document is from www.openstreetmap.org. The data is made available under ODbL."
  },
  "elements": [

{
  "type": "way",
  "id": 27204021,
  "timestamp": "2023-10-21T18:51:07Z",
  "version": 8,
  "changeset": 142936893,
  "user": "CptSchnitz",
  "uid": 11603977,
  "nodes": [
    5414894998,
    298520500,
    298520502,
    298520504,
    298520507,
    298520509,
    298520511,
    298520096
  ],
  "tags": {
    "bicycle": "yes",
    "foot": "yes",
    "highway": "unclassified"
  }
},
{
  "type": "way",
  "id": 27204034,
  "timestamp": "2023-10-14T01:00:35Z",
  "version": 22,
  "changeset": 142556151,
  "user": "NorthCrab",
  "uid": 15215305,
  "nodes": [
    298521015,
    387002252
  ],
  "tags": {
    "highway": "tertiary",
    "name": "רבי יהודה הנשיא",
    "name:ar": "رابي يهودا هناسي",
    "name:en": "Rabbi Yehuda HaNasi",
    "name:en1": "Rabi Yehuda Ha'Nassi",
    "name:en2": "Yehuda HaNasi",
    "name:en3": "Rabi Yehuda HaNasi",
    "name:he": "רבי יהודה הנשיא",
    "oneway": "yes"
  }
},
{
  "type": "way",
  "id": 27204039,
  "timestamp": "2024-05-30T17:27:06Z",
  "version": 23,
  "changeset": 152047169,
  "user": "chaim255",
  "uid": 21297578,
  "nodes": [
    386999732,
    386999657,
    1430806178,
    386999658,
    386999659,
    386999660,
    298520915,
    1430809946,
    298521168,
    3640931718,
    298521169
  ],
  "tags": {
    "highway": "tertiary",
    "name": "רבי יהודה הנשיא",
    "name:ar": "رابي يهودا هناسي",
    "name:en": "Rabbi Yehuda HaNasi",
    "name:en1": "Rabi Yehuda Ha'Nassi",
    "name:en2": "Yehuda HaNasi",
    "name:en3": "Rabi Yehuda HaNasi",
    "name:he": "יהודה הנשיא",
    "oneway": "yes"
  }
},
{
  "type": "way",
  "id": 33794917,
  "timestamp": "2023-03-16T07:48:14Z",
  "version": 6,
  "changeset": 133736359,
  "user": "luja",
  "uid": 120636,
  "nodes": [
    386999730,
    957225435,
    957225438,
    5002090496,
    386999731,
    386999732,
    5002090495,
    957225450,
    5002090487,
    386999733,
    5002090491,
    386999734,
    5002090492,
    957225453,
    5002090490,
    386999735,
    957225459,
    386999736,
    5002090497,
    386999737,
    5002090489,
    957225469,
    5002090488,
    386999738,
    5002090494,
    957225473,
    5002090493,
    386999730
  ],
  "tags": {
    "highway": "tertiary",
    "junction": "roundabout",
    "surface": "asphalt"
  }
},
{
  "type": "way",
  "id": 33795113,
  "timestamp": "2023-10-14T01:00:35Z",
  "version": 12,
  "changeset": 142556151,
  "user": "NorthCrab",
  "uid": 15215305,
  "nodes": [
    387000511,
    3664473029
  ],
  "tags": {
    "highway": "residential",
    "name": "רבי טרפון",
    "name:en": "Rabi Tarfon",
    "name:en1": "Rabbi Tarfon",
    "name:en2": "Rav Tarfon",
    "name:he": "רבי טרפון"
  }
},
{
  "type": "way",
  "id": 33795319,
  "timestamp": "2023-10-14T01:00:35Z",
  "version": 10,
  "changeset": 142556151,
  "user": "NorthCrab",
  "uid": 15215305,
  "nodes": [
    387001600,
    387000439,
    1430808686,
    1430808642,
    387000086,
    387000441,
    5002090484,
    1430808618,
    1430808631,
    387000443,
    387000444,
    5002090483,
    387000445,
    5002090300,
    387000446,
    387000447,
    387000448,
    5002090482,
    5002090481,
    5002090288,
    1430808706,
    5002090290,
    5002090292,
    1430808591,
    5002090284,
    387000450,
    5000202294,
    387000451,
    387000452,
    387000085
  ],
  "tags": {
    "highway": "residential",
    "name": "שמעיה",
    "name:en": "Shmaiah",
    "name:he": "שמעיה"
  }
},
{
  "type": "way",
  "id": 33795332,
  "timestamp": "2023-10-14T01:00:35Z",
  "version": 19,
  "changeset": 142556151,
  "user": "NorthCrab",
  "uid": 15215305,
  "nodes": [
    386999734,
    5002090403,
    387000560,
    387000439,
    387001314,
    387001315,
    5002090440,
    387001316,
    5002090439,
    387001317,
    4013481105,
    4013481107,
    4013481108
  ],
  "tags": {
    "highway": "tertiary",
    "name": "רבן יוחנן בן זכאי",
    "name:en": "Raban Yohanan Ben Zakai",
    "name:he": "רבן יוחנן בן זכאי",
    "oneway": "yes",
    "surface": "asphalt"
  }
},
{
  "type": "way",
  "id": 33795401,
  "timestamp": "2023-10-14T01:00:35Z",
  "version": 24,
  "changeset": 142556151,
  "user": "NorthCrab",
  "uid": 15215305,
  "nodes": [
    7031912065,
    7031912084,
    5032993582,
    387005751,
    5032993560,
    387005752,
    5032993566,
    387005753,
    387005754,
    5032993576,
    387005755,
    387005756,
    5032993573,
    387001572,
    387001573,
    387001574,
    387210631
  ],
  "tags": {
    "highway": "tertiary",
    "name": "רבן יוחנן בן זכאי",
    "name:en": "Raban Yohanan Ben Zakai",
    "name:he": "רבן יוחנן בן זכאי",
    "oneway": "yes",
    "surface": "asphalt"
  }
},
{
  "type": "way",
  "id": 33795475,
  "timestamp": "2017-07-29T20:11:00Z",
  "version": 4,
  "changeset": 50679565,
  "user": "eric22",
  "uid": 160949,
  "nodes": [
    387004361,
    387004362,
    957225483,
    387004363,
    957225491,
    387004364,
    957225493,
    387004365,
    387004366,
    5002090485,
    957225498,
    387004367,
    387004368,
    957225507,
    387004369,
    957225508,
    387004370,
    957225509,
    387004371,
    957225516,
    387004361
  ],
  "tags": {
    "highway": "tertiary",
    "junction": "roundabout"
  }
},
{
  "type": "way",
  "id": 33795487,
  "timestamp": "2024-05-30T17:27:06Z",
  "version": 12,
  "changeset": 152047169,
  "user": "chaim255",
  "uid": 21297578,
  "nodes": [
    387004366,
    387005212,
    387005210,
    5002090486,
    386999738
  ],
  "tags": {
    "highway": "tertiary",
    "name": "רבי יהודה הנשיא",
    "name:ar": "رابي يهودا هناسي",
    "name:en": "Rabbi Yehuda HaNasi",
    "name:en1": "Rabi Yehuda Ha'Nassi",
    "name:en2": "Yehuda HaNasi",
    "name:en3": "Rabi Yehuda HaNasi",
    "name:he": "יהודה הנשיא",
    "oneway": "yes"
  }
},
{
  "type": "way",
  "id": 33795503,
  "timestamp": "2024-05-30T17:27:06Z",
  "version": 9,
  "changeset": 152047169,
  "user": "chaim255",
  "uid": 21297578,
  "nodes": [
    386999737,
    387005296,
    387005297,
    387004367
  ],
  "tags": {
    "highway": "tertiary",
    "name": "רבי יהודה הנשיא",
    "name:ar": "رابي يهودا هناسي",
    "name:en": "Rabbi Yehuda HaNasi",
    "name:en1": "Rabi Yehuda Ha'Nassi",
    "name:en2": "Yehuda HaNasi",
    "name:en3": "Rabi Yehuda HaNasi",
    "name:he": "יהודה הנשיא",
    "oneway": "yes"
  }
},
{
  "type": "way",
  "id": 33795530,
  "timestamp": "2023-10-14T01:00:35Z",
  "version": 8,
  "changeset": 142556151,
  "user": "NorthCrab",
  "uid": 15215305,
  "nodes": [
    298520870,
    298520915,
    387005467,
    387005468,
    387005469,
    387005470,
    387005471,
    387005472,
    387005473,
    387005474,
    387005475,
    1430806147,
    387005476,
    387005477,
    5002090555,
    5002090554,
    387005478,
    387005479,
    1430806171,
    1430806172,
    1430806141,
    1430806135,
    387005481,
    1430806336,
    5002090833,
    387005483,
    387005484,
    387005485,
    387005486,
    387005487,
    5002090834,
    387005488,
    1430806127,
    387004363
  ],
  "tags": {
    "highway": "residential",
    "name": "חוני המעגל",
    "name:en": "Honi HaMeagel",
    "name:he": "חוני המעגל"
  }
},
{
  "type": "way",
  "id": 33795541,
  "timestamp": "2023-04-03T10:52:03Z",
  "version": 10,
  "changeset": 134448978,
  "user": "Sanniu",
  "uid": 1206509,
  "nodes": [
    7031912011,
    7031912016,
    7031912099,
    7031912076,
    7031912092,
    7031912073,
    7031912079,
    7031912068,
    7031912065,
    7031912033,
    7031912032,
    7031912090,
    7031912031,
    7031912028,
    7031912026,
    7031912025,
    7031911991,
    7031912022,
    7031912061,
    7031912058,
    7031912018,
    7031905764,
    7031912011
  ],
  "tags": {
    "highway": "secondary",
    "junction": "roundabout",
    "ref": "4711",
    "surface": "asphalt"
  }
},
{
  "type": "way",
  "id": 33795575,
  "timestamp": "2024-05-30T17:27:06Z",
  "version": 13,
  "changeset": 152047169,
  "user": "chaim255",
  "uid": 21297578,
  "nodes": [
    7031905742,
    387006547,
    387006548,
    387006549,
    387006550,
    387008272
  ],
  "tags": {
    "highway": "tertiary",
    "name": "רבי יהודה הנשיא",
    "name:ar": "رابي يهودا هناسي",
    "name:en": "Rabbi Yehuda HaNasi",
    "name:en1": "Rabi Yehuda Ha'Nassi",
    "name:en2": "Yehuda HaNasi",
    "name:en3": "Rabi Yehuda HaNasi",
    "name:he": "יהודה הנשיא",
    "oneway": "yes",
    "surface": "asphalt"
  }
},
{
  "type": "way",
  "id": 33795576,
  "timestamp": "2024-05-30T17:27:06Z",
  "version": 14,
  "changeset": 152047169,
  "user": "chaim255",
  "uid": 21297578,
  "nodes": [
    387008271,
    387006558,
    7223583887,
    7223583894,
    387006559,
    387006560,
    5008204161,
    5008204162,
    7031912097
  ],
  "tags": {
    "highway": "tertiary",
    "name": "רבי יהודה הנשיא",
    "name:ar": "رابي يهودا هناسي",
    "name:en": "Rabbi Yehuda HaNasi",
    "name:en1": "Rabi Yehuda Ha'Nassi",
    "name:en2": "Yehuda HaNasi",
    "name:en3": "Rabi Yehuda HaNasi",
    "name:he": "יהודה הנשיא",
    "oneway": "yes",
    "surface": "asphalt"
  }
},
{
  "type": "way",
  "id": 33795599,
  "timestamp": "2023-03-14T05:45:32Z",
  "version": 5,
  "changeset": 133650102,
  "user": "luja",
  "uid": 120636,
  "nodes": [
    387008264,
    1430806197,
    9801732152,
    1430806203,
    387008265,
    1430806208,
    9801732151,
    387008266,
    387008267,
    387008268,
    1430806223,
    387008269,
    1430806256,
    1430806280,
    9801732156,
    387008270,
    387008271,
    1430806206,
    5008204160,
    387008272,
    387008264
  ],
  "tags": {
    "highway": "tertiary",
    "junction": "roundabout",
    "surface": "asphalt"
  }
},
{
  "type": "way",
  "id": 33795601,
  "timestamp": "2023-03-14T05:45:33Z",
  "version": 5,
  "changeset": 133650102,
  "user": "luja",
  "uid": 120636,
  "nodes": [
    387008291,
    1430806327,
    387008292,
    387008293,
    5032963558,
    5032963557,
    5032963559,
    387008294,
    1430806115,
    1430806166,
    387008295,
    387008296,
    1430806291,
    387008297,
    1430806205,
    5032963561,
    387008298,
    1430806131,
    387008299,
    387009893,
    1430806126,
    1430806145,
    387008300,
    387008291
  ],
  "tags": {
    "highway": "tertiary",
    "junction": "roundabout",
    "surface": "asphalt"
  }
},
{
  "type": "way",
  "id": 33795602,
  "timestamp": "2024-05-30T17:27:06Z",
  "version": 13,
  "changeset": 152047169,
  "user": "chaim255",
  "uid": 21297578,
  "nodes": [
    387008294,
    5032963560,
    387008322,
    5032963543,
    5032963544,
    387008323,
    387008324,
    2517142570,
    10943777909,
    387008325,
    387008326,
    387008327,
    387008328,
    387008329,
    5032963552,
    387008330,
    5032963551,
    1430806313,
    387008331,
    5032963549,
    387008332,
    387008333,
    387008334,
    5032963556,
    387008335,
    387008336,
    387004361
  ],
  "tags": {
    "highway": "tertiary",
    "name": "רבי יהודה הנשיא",
    "name:ar": "رابي يهودا هناسي",
    "name:en": "Rabbi Yehuda HaNasi",
    "name:en1": "Rabi Yehuda Ha'Nassi",
    "name:en2": "Yehuda HaNasi",
    "name:en3": "Rabi Yehuda HaNasi",
    "name:he": "יהודה הנשיא",
    "oneway": "yes"
  }
},
{
  "type": "way",
  "id": 33795611,
  "timestamp": "2024-05-30T17:27:06Z",
  "version": 11,
  "changeset": 152047169,
  "user": "chaim255",
  "uid": 21297578,
  "nodes": [
    387004371,
    387008415,
    387008416,
    5032963555,
    387008417,
    387008418,
    5032963548,
    387008419,
    387008420,
    1430806320,
    5032963550,
    387008421,
    5032963554,
    387008422,
    5032963553,
    387008423,
    387008424,
    387008425,
    5032963545,
    5032963546,
    387008426,
    387008295
  ],
  "tags": {
    "highway": "tertiary",
    "name": "רבי יהודה הנשיא",
    "name:ar": "رابي يهودا هناسي",
    "name:en": "Rabbi Yehuda HaNasi",
    "name:en1": "Rabi Yehuda Ha'Nassi",
    "name:en2": "Yehuda HaNasi",
    "name:en3": "Rabi Yehuda HaNasi",
    "name:he": "יהודה הנשיא",
    "oneway": "yes"
  }
},
{
  "type": "way",
  "id": 33795656,
  "timestamp": "2024-05-30T17:27:06Z",
  "version": 12,
  "changeset": 152047169,
  "user": "chaim255",
  "uid": 21297578,
  "nodes": [
    387008266,
    9801732148,
    387009864,
    387009863,
    387009861,
    5008204156,
    387009860,
    5008204157,
    387009859,
    387009858,
    387009857,
    387009856,
    387009855,
    387008300
  ],
  "tags": {
    "highway": "tertiary",
    "name": "רבי יהודה הנשיא",
    "name:ar": "رابي يهودا هناسي",
    "name:en": "Rabbi Yehuda HaNasi",
    "name:en1": "Rabi Yehuda Ha'Nassi",
    "name:en2": "Yehuda HaNasi",
    "name:en3": "Rabi Yehuda HaNasi",
    "name:he": "יהודה הנשיא",
    "oneway": "yes",
    "surface": "asphalt"
  }
},
{
  "type": "way",
  "id": 33795662,
  "timestamp": "2024-05-30T17:27:06Z",
  "version": 14,
  "changeset": 152047169,
  "user": "chaim255",
  "uid": 21297578,
  "nodes": [
    387009893,
    387009894,
    387009878,
    387009877,
    5008204158,
    387009876,
    387009875,
    5008204159,
    1430773830,
    387009872,
    9801732147,
    387009871,
    387008268
  ],
  "tags": {
    "highway": "tertiary",
    "name": "רבי יהודה הנשיא",
    "name:ar": "رابي يهودا هناسي",
    "name:en": "Rabbi Yehuda HaNasi",
    "name:en1": "Rabi Yehuda Ha'Nassi",
    "name:en2": "Yehuda HaNasi",
    "name:en3": "Rabi Yehuda HaNasi",
    "name:he": "יהודה הנשיא",
    "oneway": "yes",
    "surface": "asphalt"
  }
},
{
  "type": "way",
  "id": 33806090,
  "timestamp": "2024-05-30T17:27:06Z",
  "version": 13,
  "changeset": 152047169,
  "user": "chaim255",
  "uid": 21297578,
  "nodes": [
    9801732143,
    9801732121,
    387210848,
    387210849,
    387210850,
    387210449,
    7223572588,
    5032993568,
    7223572594,
    7223572598
  ],
  "tags": {
    "highway": "tertiary",
    "name": "רשב\"י",
    "name:en": "Rashbi",
    "name:he": "רשבי",
    "oneway": "yes"
  }
},
{
  "type": "way",
  "id": 33806170,
  "timestamp": "2024-06-03T08:52:21Z",
  "version": 13,
  "changeset": 152190125,
  "user": "chaim255",
  "uid": 21297578,
  "nodes": [
    387008297,
    387211112,
    5032963563,
    387211113,
    9801732090,
    9801732105
  ],
  "tags": {
    "highway": "residential",
    "name": "רבי מאיר",
    "name:en": "Meir",
    "name:he": "מאיר",
    "oneway": "yes"
  }
},
{
  "type": "way",
  "id": 33806171,
  "timestamp": "2024-06-03T08:52:21Z",
  "version": 9,
  "changeset": 152190125,
  "user": "chaim255",
  "uid": 21297578,
  "nodes": [
    9801732108,
    387211117,
    9801732089,
    5032963562,
    387211118,
    387008298
  ],
  "tags": {
    "highway": "residential",
    "name": "רבי מאיר",
    "name:en": "Meir",
    "name:he": "מאיר",
    "oneway": "yes"
  }
},
{
  "type": "way",
  "id": 33806184,
  "timestamp": "2024-06-03T08:55:56Z",
  "version": 8,
  "changeset": 152190277,
  "user": "chaim255",
  "uid": 21297578,
  "nodes": [
    9801732024,
    387211153,
    9801732025,
    9801732053,
    9801732065
  ],
  "tags": {
    "highway": "residential",
    "name": "רבי מאיר",
    "name:en": "Meir",
    "name:he": "מאיר",
    "oneway": "yes"
  }
},
{
  "type": "way",
  "id": 33806200,
  "timestamp": "2024-06-03T08:55:56Z",
  "version": 7,
  "changeset": 152190277,
  "user": "chaim255",
  "uid": 21297578,
  "nodes": [
    9801732068,
    9801732052,
    387211146,
    9801732026,
    9801732038
  ],
  "tags": {
    "highway": "residential",
    "name": "רבי מאיר",
    "name:en": "Meir",
    "name:he": "מאיר",
    "oneway": "yes"
  }
},
{
  "type": "way",
  "id": 33806201,
  "timestamp": "2024-06-03T08:52:21Z",
  "version": 10,
  "changeset": 152190125,
  "user": "chaim255",
  "uid": 21297578,
  "nodes": [
    9801732093,
    387211115,
    387211142,
    2517142681,
    387211143,
    387211144
  ],
  "tags": {
    "highway": "residential",
    "name": "רבי מאיר",
    "name:en": "Rabbi Meir"
  }
},
{
  "type": "way",
  "id": 33806960,
  "timestamp": "2010-10-19T17:41:31Z",
  "version": 2,
  "changeset": 6101592,
  "user": "talkat",
  "uid": 90980,
  "nodes": [
    387219482,
    298521168
  ],
  "tags": {
    "highway": "tertiary"
  }
},
{
  "type": "way",
  "id": 34029905,
  "timestamp": "2023-10-14T01:00:35Z",
  "version": 13,
  "changeset": 142556151,
  "user": "NorthCrab",
  "uid": 15215305,
  "nodes": [
    387008293,
    5032963293,
    5032963292,
    389983267,
    5032963291,
    5032993608,
    650149655,
    5032963290,
    5032963289,
    1430806129,
    650149657,
    5032963288,
    5032963287,
    650149659,
    5032963286,
    1430806153,
    5032976975,
    5032963245,
    650160973,
    650149647
  ],
  "tags": {
    "highway": "residential",
    "name": "אבן גבירול",
    "name:ar": "بن جابيرول",
    "name:en": "Ibn Gabirol",
    "name:en1": "Ibn Gvirol",
    "name:en2": "Even Gvirol",
    "name:en3": "Eben Gvirol",
    "name:he": "אבן גבירול",
    "name:ru": "Ибн Гвироль"
  }
},
{
  "type": "way",
  "id": 34030091,
  "timestamp": "2023-10-14T01:00:35Z",
  "version": 13,
  "changeset": 142556151,
  "user": "NorthCrab",
  "uid": 15215305,
  "nodes": [
    9801715704,
    681227227,
    5008203719,
    5008203821,
    681227226,
    5008203822,
    681227225,
    5008203823,
    681227211,
    10943777840,
    681227224,
    5032979234,
    681227223,
    5032979233,
    681227222,
    5032979232,
    5032979231,
    681227221,
    10943777983,
    681227202,
    7031912102,
    7031912055,
    7031912053,
    7031905733
  ],
  "tags": {
    "highway": "tertiary",
    "name": "רבי שמעון בן שטח",
    "name:en": "Rabbi Shimon Ben Shetach",
    "name:he": "רבי שמעון בן שטח",
    "source": "bing"
  }
},
{
  "type": "way",
  "id": 34030119,
  "timestamp": "2021-12-05T12:59:28Z",
  "version": 8,
  "changeset": 114581280,
  "user": "hatul",
  "uid": 686490,
  "nodes": [
    7031912012,
    7031912010,
    7031912009,
    7031912007,
    7031912006,
    7031912004,
    7031912003,
    7031912001,
    7031911998,
    7031911996,
    7031911999,
    7031911992,
    7031911990,
    7031911989,
    7031912035
  ],
  "tags": {
    "highway": "secondary",
    "ref": "4711"
  }
},
{
  "type": "way",
  "id": 34030543,
  "timestamp": "2023-10-14T01:00:35Z",
  "version": 5,
  "changeset": 142556151,
  "user": "NorthCrab",
  "uid": 15215305,
  "nodes": [
    387004369,
    650145540,
    389991260
  ],
  "tags": {
    "highway": "residential",
    "name": "רבי שמואל הנגיד",
    "name:en": "Rabbi Shmuel HaNagid",
    "name:he": "רבי שמואל הנגיד"
  }
},
{
  "type": "way",
  "id": 50991431,
  "timestamp": "2024-05-30T17:27:06Z",
  "version": 14,
  "changeset": 152047169,
  "user": "chaim255",
  "uid": 21297578,
  "nodes": [
    387005488,
    2517142675,
    2517142655,
    2517142606,
    2517142798,
    1430773827,
    650150133,
    5002090678,
    650150135,
    5002090677,
    1430809941,
    1430809949,
    5002090676,
    650150138,
    5002090675,
    650150140,
    1430806287,
    1430806269,
    1430806225,
    1430773832,
    1430806333,
    5002090727,
    650145337,
    387005485
  ],
  "tags": {
    "highway": "residential",
    "name": "רב ניסים גאון",
    "name:en": "Rabbi Nisim Gaon",
    "name:he": "ניסים גאון",
    "sidewalk": "both",
    "surface": "asphalt"
  }
},
{
  "type": "way",
  "id": 50991432,
  "timestamp": "2023-10-14T01:00:35Z",
  "version": 12,
  "changeset": 142556151,
  "user": "NorthCrab",
  "uid": 15215305,
  "nodes": [
    650145353,
    1430773794,
    1430773831,
    650145356,
    3664471417,
    9801732091
  ],
  "tags": {
    "highway": "residential",
    "name": "רבי פנחס בן יאיר",
    "name:en": "Rabi Pinhas Ben Yaeir",
    "name:he": "רבי פנחס בן יאיר",
    "note": "fixme"
  }
},
{
  "type": "way",
  "id": 50991434,
  "timestamp": "2024-05-30T17:27:06Z",
  "version": 11,
  "changeset": 152047169,
  "user": "chaim255",
  "uid": 21297578,
  "nodes": [
    650145356,
    5008204155,
    650145412,
    5008204154,
    1096863886,
    3664473028,
    650145415,
    5008204153,
    1096863888,
    5008204152,
    650145419,
    5008204151,
    1096863883,
    5008204150,
    650145421,
    5008204149,
    650145353
  ],
  "tags": {
    "highway": "residential",
    "name": "רמב\"ם",
    "name:ar": "رمبام",
    "name:en": "Rambam",
    "name:he": "רמבם",
    "name:ru": "Рамбам"
  }
},
{
  "type": "way",
  "id": 50991435,
  "timestamp": "2024-06-03T08:53:52Z",
  "version": 13,
  "changeset": 152190188,
  "user": "chaim255",
  "uid": 21297578,
  "nodes": [
    650145353,
    1430773820,
    1430773811,
    5008202576,
    650145430,
    1430773822,
    5008202577,
    650145435,
    5008202575,
    1430773798,
    650148618,
    2517142658,
    2517142622,
    650148625,
    9801732058
  ],
  "tags": {
    "highway": "residential",
    "name": "יונתן בן עוזיאל",
    "name:en": "Ben Uziel",
    "name:he": "יונתן בן עוזיאל"
  }
},
{
  "type": "way",
  "id": 50991436,
  "timestamp": "2023-10-14T01:00:35Z",
  "version": 10,
  "changeset": 142556151,
  "user": "NorthCrab",
  "uid": 15215305,
  "nodes": [
    650145476,
    650145481,
    1430806111,
    650145483,
    5000202114,
    1430806105,
    650177437,
    1430806102,
    5000202115,
    650145487,
    1430806107,
    5000202116,
    650145492,
    1430806100,
    5000202117,
    650145498,
    5000202118,
    650145504
  ],
  "tags": {
    "highway": "residential",
    "name": "אבטליון",
    "name:en": "Avtalyon",
    "name:en1": "Avtalion",
    "name:he": "אבטליון"
  }
},
{
  "type": "way",
  "id": 50991437,
  "timestamp": "2024-05-30T17:27:06Z",
  "version": 10,
  "changeset": 152047169,
  "user": "chaim255",
  "uid": 21297578,
  "nodes": [
    5000202112,
    1430806101,
    653124899,
    1430806103,
    1430806099,
    1430806120,
    1430808710,
    650145531,
    5000202113,
    650145504
  ],
  "tags": {
    "highway": "residential",
    "name": "הריטב\"א",
    "name:en": "HaRitba",
    "name:he": "הריטבא"
  }
},
{
  "type": "way",
  "id": 50991438,
  "timestamp": "2023-10-14T01:00:35Z",
  "version": 11,
  "changeset": 142556151,
  "user": "NorthCrab",
  "uid": 15215305,
  "nodes": [
    650145540,
    1430806180,
    5002090389,
    650145542,
    5002090390,
    1430806186,
    5002090391,
    650145545,
    5002090392,
    650145547,
    5002090393,
    650145549,
    2517142792,
    5002090388,
    650145552,
    650145557,
    650145559,
    5002089593,
    5000210249,
    2517142695,
    5000210248,
    650153370,
    650145562
  ],
  "tags": {
    "highway": "residential",
    "name": "שמאי",
    "name:en": "Shamai",
    "name:he": "שמאי"
  }
},
{
  "type": "way",
  "id": 50991439,
  "timestamp": "2023-10-14T01:00:35Z",
  "version": 11,
  "changeset": 142556151,
  "user": "NorthCrab",
  "uid": 15215305,
  "nodes": [
    1430806325,
    1430806300,
    5002089563,
    650145590,
    389991260,
    5002089561,
    650145599,
    5002089562,
    650153380,
    5002089560,
    650145602,
    653124815,
    5002089557,
    5002089556,
    1430809937,
    650145562,
    650153342
  ],
  "tags": {
    "highway": "residential",
    "name": "הלל",
    "name:en": "Hillel",
    "name:en1": "Hellel",
    "name:en2": "Halel",
    "name:en3": "Hilel",
    "name:he": "הלל"
  }
},
{
  "type": "way",
  "id": 50991440,
  "timestamp": "2023-10-14T01:00:35Z",
  "version": 12,
  "changeset": 142556151,
  "user": "NorthCrab",
  "uid": 15215305,
  "nodes": [
    387008331,
    387008420,
    1430806253,
    650167929,
    1430806321
  ],
  "tags": {
    "highway": "tertiary",
    "name": "רבי עקיבא",
    "name:en": "Rabbi Akiva",
    "name:en1": "Rabi Akiva",
    "name:he": "רבי עקיבא",
    "oneway": "yes"
  }
},
{
  "type": "way",
  "id": 50991480,
  "timestamp": "2023-10-14T01:00:35Z",
  "version": 12,
  "changeset": 142556151,
  "user": "NorthCrab",
  "uid": 15215305,
  "nodes": [
    650148239,
    5000201833,
    1430773816,
    5000201884,
    5000201883,
    5000201882,
    650159955,
    2517142596,
    650148246,
    650148252,
    650167951,
    1430787584,
    5000201885,
    650159958,
    5000201710,
    5000201886,
    5000201709,
    650167958,
    5000201888,
    5000201887,
    650148255,
    1430787552,
    1430806096,
    650148258,
    650148178
  ],
  "tags": {
    "highway": "residential",
    "name": "רבי יוסי בן קיסמא",
    "name:en": "Rabi Yosi Ben Kisma",
    "name:he": "רבי יוסי בן קיסמא"
  }
},
{
  "type": "way",
  "id": 50991483,
  "timestamp": "2023-10-14T01:00:35Z",
  "version": 7,
  "changeset": 142556151,
  "user": "NorthCrab",
  "uid": 15215305,
  "nodes": [
    650148625,
    650148640,
    5000201843,
    1430773809,
    5000201845,
    650148645,
    5000201844,
    1430773826,
    650148646,
    1430787546,
    650148675,
    650148686,
    5000201842,
    1430773825,
    650148618
  ],
  "tags": {
    "highway": "residential",
    "name": "בעלי התוספות",
    "name:en": "Baalei HaTosafot",
    "name:he": "בעלי התוספות"
  }
},
{
  "type": "way",
  "id": 50992955,
  "timestamp": "2023-10-14T01:00:35Z",
  "version": 10,
  "changeset": 142556151,
  "user": "NorthCrab",
  "uid": 15215305,
  "nodes": [
    650157115,
    650145368,
    5032963509,
    5000201837,
    650145371,
    5032963508,
    2517142543,
    5000201838,
    650145375,
    5000201839,
    650145377,
    5000201840,
    650145379,
    2517142540,
    5032964043,
    5032964042,
    5000201841
  ],
  "tags": {
    "highway": "residential",
    "name": "רש\"י",
    "name:ar": "راشد",
    "name:en": "Rashi",
    "name:he": "רש\"י",
    "name:ru": "Раши"
  }
},
{
  "type": "way",
  "id": 50993039,
  "timestamp": "2023-10-14T01:00:35Z",
  "version": 10,
  "changeset": 142556151,
  "user": "NorthCrab",
  "uid": 15215305,
  "nodes": [
    681227203,
    1430806139,
    5008203827,
    681227204,
    5008203828,
    5008203829,
    681227205,
    681227206,
    5008203830,
    681227207,
    5008203831,
    1430806134,
    5008203832,
    681227208,
    5008202588,
    5008203833,
    5008203834,
    681227209,
    5008203835,
    653124908,
    5008203837,
    1096863881,
    650160983,
    5008203836,
    650160959
  ],
  "tags": {
    "highway": "residential",
    "name": "ברטנורא",
    "name:en": "Bartnura",
    "name:he": "ברטנורא"
  }
},
{
  "type": "way",
  "id": 51071424,
  "timestamp": "2023-10-14T01:00:35Z",
  "version": 13,
  "changeset": 142556151,
  "user": "NorthCrab",
  "uid": 15215305,
  "nodes": [
    650145504,
    5000202119,
    5000202120,
    10683436006,
    650145476,
    4695693502
  ],
  "tags": {
    "highway": "residential",
    "name": "אבטליון",
    "name:en": "Avtalyon",
    "name:en1": "Avtalion",
    "name:he": "אבטליון"
  }
},
{
  "type": "way",
  "id": 51190901,
  "timestamp": "2024-05-30T17:27:06Z",
  "version": 8,
  "changeset": 152047169,
  "user": "chaim255",
  "uid": 21297578,
  "nodes": [
    653124816,
    2517142610,
    5002089558,
    5002089559,
    653124815
  ],
  "tags": {
    "highway": "residential",
    "name": "רד\"ק",
    "name:ar": "رَداك",
    "name:en": "Radak",
    "name:en1": "Radaq",
    "name:he": "רדק"
  }
},
{
  "type": "way",
  "id": 51190913,
  "timestamp": "2024-05-30T17:27:06Z",
  "version": 8,
  "changeset": 152047169,
  "user": "chaim255",
  "uid": 21297578,
  "nodes": [
    2517142669,
    2517142582,
    653124900,
    1430809959,
    1430809948,
    387005470
  ],
  "tags": {
    "highway": "residential",
    "name": "הרא\"ש",
    "name:en": "HaRash",
    "name:he": "הראש"
  }
},
{
  "type": "way",
  "id": 51190916,
  "timestamp": "2023-10-14T01:00:35Z",
  "version": 12,
  "changeset": 142556151,
  "user": "NorthCrab",
  "uid": 15215305,
  "nodes": [
    5032993566,
    650148184,
    5032993567,
    1430787559,
    5000201830,
    650148271,
    5000201829,
    650148275,
    3664473050,
    650159971,
    5000201875,
    650148279,
    5000201874,
    1430787557,
    650178718,
    5000201876,
    5000201877,
    650159977,
    1430787569,
    5000201878,
    5000201832,
    650148283,
    5000201831,
    650148286,
    650148239,
    5000201834,
    5415927787,
    1430787566,
    5000201835,
    1430787558,
    5035344099,
    5035344100,
    387001337
  ],
  "tags": {
    "highway": "residential",
    "name": "שמעון הצדיק",
    "name:en": "Shimon HaTsadik",
    "name:he": "שמעון הצדיק"
  }
},
{
  "type": "way",
  "id": 51190943,
  "timestamp": "2023-10-14T01:00:35Z",
  "version": 7,
  "changeset": 142556151,
  "user": "NorthCrab",
  "uid": 15215305,
  "nodes": [
    653125069,
    1430787571
  ],
  "tags": {
    "highway": "residential",
    "name": "רבי חייא",
    "name:en": "Rabi Hiya",
    "name:he": "רבי חייא",
    "note": "fixme"
  }
},
{
  "type": "way",
  "id": 51190949,
  "timestamp": "2024-05-30T16:18:46Z",
  "version": 12,
  "changeset": 152043974,
  "user": "chaim255",
  "uid": 21297578,
  "nodes": [
    1430787564,
    681226922,
    5008204537,
    2517142667,
    681226923,
    5008204538,
    2517142538,
    681226924,
    653125075,
    1430787583
  ],
  "tags": {
    "highway": "residential",
    "name": "סעדיה גאון",
    "name:en": "Rabi Yosef Karo",
    "name:en1": "Rabbi Yosef Ka'aro",
    "name:he": "רבי יוסף קארו"
  }
},
{
  "type": "way",
  "id": 51190950,
  "timestamp": "2023-10-14T01:00:35Z",
  "version": 8,
  "changeset": 142556151,
  "user": "NorthCrab",
  "uid": 15215305,
  "nodes": [
    5008204189,
    653125078,
    5008203841,
    2517142636,
    5008203840,
    2517142572,
    9460214845,
    5008203839,
    1430806144,
    1430806142,
    5008203838,
    5008203842,
    1430806136,
    5008203843,
    1430806138,
    5008203844,
    5008203845,
    1430806149
  ],
  "tags": {
    "highway": "residential",
    "name": "הרב המאירי",
    "name:en": "HaRav HaMeiri",
    "name:he": "הרב המאירי"
  }
},
{
  "type": "way",
  "id": 51200910,
  "timestamp": "2024-05-30T17:27:06Z",
  "version": 13,
  "changeset": 152047169,
  "user": "chaim255",
  "uid": 21297578,
  "nodes": [
    1430787568,
    5008203847,
    653125076,
    5008203848,
    681226913,
    5008203849,
    2517142555,
    5008203846,
    1430806149,
    681226914,
    7223578296,
    5008203850,
    5032993581,
    681226915,
    2517142630,
    5008203851,
    5008203852,
    681226916,
    5008203853,
    681226917,
    5008203854,
    2517142811,
    5008203856,
    681226918,
    11945641261,
    5008203855,
    2517142583,
    5008204544,
    5008204545,
    681226919,
    2517142557,
    681226920,
    1430787562
  ],
  "tags": {
    "highway": "residential",
    "name": "רבי יוסף קארו",
    "name:en": "Rabi Yosef Karo",
    "name:en1": "Rabbi Yosef Ka'aro",
    "name:he": "רבי יוסף קארו"
  }
},
{
  "type": "way",
  "id": 54030343,
  "timestamp": "2023-10-14T01:00:35Z",
  "version": 8,
  "changeset": 142556151,
  "user": "NorthCrab",
  "uid": 15215305,
  "nodes": [
    681227211,
    681227212,
    681227213,
    5008203824,
    681227214,
    5008203825,
    681227215,
    5008203826,
    681227216,
    681227203,
    681227202
  ],
  "tags": {
    "highway": "residential",
    "name": "הריף",
    "name:en": "HaRif",
    "name:en1": "Ha'Rif",
    "name:he": "הריף",
    "name:he1": "הרי\"ף"
  }
},
{
  "type": "way",
  "id": 54030344,
  "timestamp": "2023-10-14T01:00:35Z",
  "version": 7,
  "changeset": 142556151,
  "user": "NorthCrab",
  "uid": 15215305,
  "nodes": [
    681227212,
    5008202616,
    681227217,
    5008202615,
    681227218,
    5008202614,
    681227219,
    5008202612,
    5008202613,
    5008202603,
    681227203
  ],
  "tags": {
    "highway": "residential",
    "name": "ראב\"ד",
    "name:en": "Raavad",
    "name:en1": "Ra'avad",
    "name:en2": "Raabad",
    "name:he": "ראב\"ד",
    "source": "bing"
  }
},
{
  "type": "way",
  "id": 54030350,
  "timestamp": "2023-10-14T01:00:35Z",
  "version": 11,
  "changeset": 142556151,
  "user": "NorthCrab",
  "uid": 15215305,
  "nodes": [
    1430806165,
    10943772546,
    5032963243,
    1430806163,
    2517142537,
    1430806159,
    5008203702,
    5032962958,
    1430806154,
    1430806217,
    1430806143,
    1430806174,
    5008203718,
    5008203717
  ],
  "tags": {
    "highway": "residential",
    "name": "רבי יהושוע",
    "name:en": "Rabi Yehoshua",
    "name:en1": "Rabbi Yehoshua",
    "name:he": "רבי יהושוע",
    "name:he1": "רבי יהושע",
    "source": "bing"
  }
},
{
  "type": "way",
  "id": 60956373,
  "timestamp": "2024-05-30T17:27:06Z",
  "version": 10,
  "changeset": 152047169,
  "user": "chaim255",
  "uid": 21297578,
  "nodes": [
    10905168982,
    387219482,
    5002089555,
    298520870,
    386999227,
    386999229,
    386999232,
    386999733
  ],
  "tags": {
    "highway": "tertiary",
    "name": "רבי יהודה הנשיא",
    "name:ar": "رابي يهودا هناسي",
    "name:en": "Rabbi Yehuda HaNasi",
    "name:en1": "Rabi Yehuda Ha'Nassi",
    "name:en2": "Yehuda HaNasi",
    "name:en3": "Rabi Yehuda HaNasi",
    "name:he": "יהודה הנשיא",
    "oneway": "yes"
  }
},
{
  "type": "way",
  "id": 60956402,
  "timestamp": "2023-10-21T18:51:07Z",
  "version": 11,
  "changeset": 142936893,
  "user": "CptSchnitz",
  "uid": 11603977,
  "nodes": [
    763074513,
    298520368,
    10899445841,
    298520370,
    7012239513,
    298520371,
    298520096
  ],
  "tags": {
    "bicycle": "yes",
    "colour": "blue",
    "foot": "yes",
    "highway": "unclassified"
  }
},
{
  "type": "way",
  "id": 60956403,
  "timestamp": "2021-11-29T15:59:37Z",
  "version": 7,
  "changeset": 114366925,
  "user": "hatul",
  "uid": 686490,
  "nodes": [
    298520096,
    6830404187,
    6830404279,
    6830404251,
    6830404284,
    7532233307
  ],
  "tags": {
    "colour": "blue",
    "highway": "unclassified"
  }
},
{
  "type": "way",
  "id": 129743780,
  "timestamp": "2024-06-03T08:52:21Z",
  "version": 6,
  "changeset": 152190125,
  "user": "chaim255",
  "uid": 21297578,
  "nodes": [
    1430773800,
    387211115
  ],
  "tags": {
    "highway": "residential",
    "name": "rch מאיר",
    "name:he": "רבי מאיר",
    "source": "bing"
  }
},
{
  "type": "way",
  "id": 129743784,
  "timestamp": "2023-10-14T00:56:57Z",
  "version": 6,
  "changeset": 142556002,
  "user": "NorthCrab",
  "uid": 15215305,
  "nodes": [
    1430773790,
    5008204148,
    1430773787,
    5008204147,
    1430773801,
    5008204146,
    1430773829,
    1430773833,
    5008204145,
    1430773791,
    1430773836,
    5008204144,
    1430773831
  ],
  "tags": {
    "highway": "residential",
    "name": "רבי פנחס בן יאיר",
    "name:en": "Rabi Pinhas Ben Yaeir",
    "name:he": "רבי פנחס בן יאיר",
    "source": "bing"
  }
},
{
  "type": "way",
  "id": 129743785,
  "timestamp": "2024-05-30T16:18:46Z",
  "version": 3,
  "changeset": 152043974,
  "user": "chaim255",
  "uid": 21297578,
  "nodes": [
    5032963436,
    1430773835,
    1430773794
  ],
  "tags": {
    "highway": "residential",
    "name": "רבי פנחס בן יאיר",
    "source": "bing"
  }
},
{
  "type": "way",
  "id": 129744865,
  "timestamp": "2024-06-06T10:59:34Z",
  "version": 8,
  "changeset": 152325906,
  "user": "chaim255",
  "uid": 21297578,
  "nodes": [
    1430787560,
    5000201879,
    1430787561,
    1430787563,
    5000201880,
    1430787565,
    5000201881,
    1430787566
  ],
  "tags": {
    "highway": "residential",
    "name": "רבינו בחיי",
    "name:en": "Rabbeinu Bachaye",
    "name:he": "בחיי",
    "source": "bing"
  }
},
{
  "type": "way",
  "id": 129744866,
  "timestamp": "2013-11-02T09:05:52Z",
  "version": 2,
  "changeset": 18671521,
  "user": "Mr_Israel",
  "uid": 22684,
  "nodes": [
    1430787564,
    2517142766,
    2517142731,
    2517142688,
    1430787571,
    2517142541,
    2517142817,
    2517142674,
    2517142653,
    1430787562,
    2517142759,
    2517142724,
    2517142794,
    1430787573,
    2517142560,
    2517142550,
    2517142580,
    2517142595,
    1430787564
  ],
  "tags": {
    "highway": "residential",
    "junction": "roundabout",
    "note": "fixme"
  }
},
{
  "type": "way",
  "id": 129744868,
  "timestamp": "2023-10-14T00:56:57Z",
  "version": 4,
  "changeset": 142556002,
  "user": "NorthCrab",
  "uid": 15215305,
  "nodes": [
    1430787582,
    5008204191
  ],
  "tags": {
    "highway": "residential",
    "name": "רבי חייא",
    "name:en": "Rabi Hiya",
    "name:he": "רבי חייא"
  }
},
{
  "type": "way",
  "id": 129744869,
  "timestamp": "2018-02-16T08:18:38Z",
  "version": 4,
  "changeset": 56406246,
  "user": "sivan00",
  "uid": 2045570,
  "nodes": [
    2517142533,
    2517142562,
    2517142704,
    2517142581,
    1430787577,
    5008204539,
    2517142662,
    2517142657,
    2517142699,
    1430787568,
    2517142804,
    2517142756,
    1430787582,
    2517142711,
    2517142567,
    2517142702,
    2517142728,
    1430787583,
    2517142533
  ],
  "tags": {
    "highway": "residential",
    "junction": "roundabout"
  }
},
{
  "type": "way",
  "id": 129744870,
  "timestamp": "2024-05-30T17:27:06Z",
  "version": 7,
  "changeset": 152047169,
  "user": "chaim255",
  "uid": 21297578,
  "nodes": [
    1430787573,
    5008204543,
    11945641260,
    5008204542,
    653125071,
    681227232,
    5008204541,
    2517142631,
    653125072,
    5008204540,
    681227233,
    7223578295,
    1430787577
  ],
  "tags": {
    "highway": "residential",
    "name": "רבי חייא",
    "name:en": "Rabi Hiya",
    "name:he": "רבי חייא"
  }
},
{
  "type": "way",
  "id": 129746820,
  "timestamp": "2023-10-14T00:56:57Z",
  "version": 7,
  "changeset": 142556002,
  "user": "NorthCrab",
  "uid": 15215305,
  "nodes": [
    387005477,
    5002090557,
    1430806168,
    5002090556,
    1430806164,
    1430806162
  ],
  "tags": {
    "highway": "residential",
    "name": "התאנה",
    "name:ar": "ها تينا",
    "name:en": "HaTeena",
    "name:en1": "Ha'Te'ena",
    "name:en2": "HaTe'ena",
    "name:en3": "HateEna",
    "name:en4": "HaTena",
    "name:he": "התאנה",
    "name:ru": "ХаТеена",
    "source": "bing"
  }
},
{
  "type": "way",
  "id": 129746823,
  "timestamp": "2023-06-01T10:15:59Z",
  "version": 4,
  "changeset": 136824001,
  "user": "BMM994",
  "uid": 189946,
  "nodes": [
    10943777818,
    1430806167,
    1430806174
  ],
  "tags": {
    "highway": "residential",
    "source": "bing"
  }
},
{
  "type": "way",
  "id": 129746829,
  "timestamp": "2024-05-30T17:27:06Z",
  "version": 5,
  "changeset": 152047169,
  "user": "chaim255",
  "uid": 21297578,
  "nodes": [
    1430806278,
    1430806282,
    1430806298,
    1430806284,
    1430806299,
    1430806289,
    1430806287
  ],
  "tags": {
    "highway": "residential",
    "name": "רב ניסים גאון",
    "name:en": "Rabbi Nisim Gaon",
    "name:he": "ניסים גאון",
    "sidewalk": "both",
    "source": "bing",
    "surface": "asphalt"
  }
},
{
  "type": "way",
  "id": 129746832,
  "timestamp": "2023-10-14T00:56:57Z",
  "version": 7,
  "changeset": 142556002,
  "user": "NorthCrab",
  "uid": 15215305,
  "nodes": [
    1430806143,
    10943772547,
    5008203701
  ],
  "tags": {
    "highway": "residential",
    "name": "הר\"ן",
    "name:en": "HaRan",
    "name:en1": "Ha'Ran",
    "name:he": "הר\"ן"
  }
},
{
  "type": "way",
  "id": 129746833,
  "timestamp": "2023-10-14T00:56:57Z",
  "version": 4,
  "changeset": 142556002,
  "user": "NorthCrab",
  "uid": 15215305,
  "nodes": [
    1430806175,
    1430806169,
    1430806170,
    1430806171
  ],
  "tags": {
    "highway": "residential",
    "name": "חוני המעגל",
    "name:en": "Honi HaMeagel",
    "name:he": "חוני המעגל",
    "source": "bing"
  }
},
{
  "type": "way",
  "id": 129746836,
  "timestamp": "2023-10-14T00:56:57Z",
  "version": 7,
  "changeset": 142556002,
  "user": "NorthCrab",
  "uid": 15215305,
  "nodes": [
    1430806269,
    1430806251,
    5002090732,
    1430806249,
    5002090731,
    5002090730,
    1430806235,
    1430806219,
    5002090728,
    1430806221,
    5002090729,
    1430806224,
    1430806225
  ],
  "tags": {
    "highway": "residential",
    "name": "רבינו תם",
    "name:en": "Rabenu Tam",
    "name:he": "רבינו תם",
    "source": "bing"
  }
},
{
  "type": "way",
  "id": 129746845,
  "timestamp": "2023-10-14T00:56:57Z",
  "version": 4,
  "changeset": 142556002,
  "user": "NorthCrab",
  "uid": 15215305,
  "nodes": [
    1430806118,
    1430806120
  ],
  "tags": {
    "highway": "residential",
    "name": "הריטב\"א",
    "name:en": "HaRitba",
    "name:he": "הריטב\"א",
    "source": "bing"
  }
},
{
  "type": "way",
  "id": 129746848,
  "timestamp": "2024-05-30T17:27:06Z",
  "version": 5,
  "changeset": 152047169,
  "user": "chaim255",
  "uid": 21297578,
  "nodes": [
    1430806119,
    1430806118,
    1430806123,
    1430806128
  ],
  "tags": {
    "highway": "residential",
    "name": "הריטב\"א",
    "name:en": "HaRitba",
    "name:he": "הריטבא",
    "source": "bing"
  }
},
{
  "type": "way",
  "id": 129746849,
  "timestamp": "2023-10-14T00:56:57Z",
  "version": 7,
  "changeset": 142556002,
  "user": "NorthCrab",
  "uid": 15215305,
  "nodes": [
    1430806319,
    1430806301,
    5032964033,
    1430806320,
    1430806313
  ],
  "tags": {
    "highway": "tertiary",
    "name": "רבי עקיבא",
    "name:en": "Rabbi Akiva",
    "name:en1": "Rabi Akiva",
    "name:he": "רבי עקיבא",
    "oneway": "yes"
  }
},
{
  "type": "way",
  "id": 129746856,
  "timestamp": "2023-10-14T00:56:57Z",
  "version": 7,
  "changeset": 142556002,
  "user": "NorthCrab",
  "uid": 15215305,
  "nodes": [
    1430806165,
    1430806207,
    5008203712,
    5008203711,
    1430806202,
    1430806201,
    5008203710,
    1430806200,
    5008203709,
    5032963244,
    1430806199,
    1430806198,
    5008203708,
    5008203707,
    5008203706,
    1430806196,
    5008203705,
    5032962957,
    1430806195,
    5008203704,
    1430806193,
    5008203703,
    1430806194,
    5008203713,
    1430806191,
    5008203714,
    5008203715,
    1430806143
  ],
  "tags": {
    "highway": "residential",
    "name": "רבן גמליאל",
    "name:en": "Raban Gamliel",
    "name:en1": "Rabvan Gamliel",
    "name:he": "רבן גמליאל",
    "source": "bing"
  }
},
{
  "type": "way",
  "id": 129746857,
  "timestamp": "2024-05-30T17:27:06Z",
  "version": 6,
  "changeset": 152047169,
  "user": "chaim255",
  "uid": 21297578,
  "nodes": [
    1430806324,
    1430806304,
    1430806323,
    1430806303,
    1430806328,
    1430806322,
    1430806317,
    1430806302,
    1430806097,
    1430806096
  ],
  "tags": {
    "highway": "residential",
    "name": "רשב\"ם",
    "name:en": "Rashbam",
    "name:he": "רשבם",
    "source": "bing"
  }
},
{
  "type": "way",
  "id": 129746858,
  "timestamp": "2024-01-10T13:14:53Z",
  "version": 2,
  "changeset": 146103963,
  "user": "BMM994",
  "uid": 189946,
  "nodes": [
    1430806130,
    11505926393,
    681226924
  ],
  "tags": {
    "highway": "residential",
    "source": "bing"
  }
},
{
  "type": "way",
  "id": 129746861,
  "timestamp": "2023-10-14T00:56:57Z",
  "version": 6,
  "changeset": 142556002,
  "user": "NorthCrab",
  "uid": 15215305,
  "nodes": [
    1430806158,
    1430806156,
    1430806155,
    1430806137,
    1430806158,
    1430806147
  ],
  "tags": {
    "highway": "residential",
    "name": "התאנה",
    "name:ar": "ها تينا",
    "name:en": "HaTeena",
    "name:en1": "Ha'Te'ena",
    "name:en2": "HaTe'ena",
    "name:en3": "HateEna",
    "name:en4": "HaTena",
    "name:he": "התאנה",
    "name:ru": "ХаТеена",
    "source": "bing"
  }
},
{
  "type": "way",
  "id": 129746862,
  "timestamp": "2023-10-14T00:56:57Z",
  "version": 7,
  "changeset": 142556002,
  "user": "NorthCrab",
  "uid": 15215305,
  "nodes": [
    1430806214,
    10943777812,
    1430806217
  ],
  "tags": {
    "highway": "residential",
    "name": "המהרש''ל",
    "name:en": "HaMarshal",
    "name:en1": "HaMarshel",
    "name:he": "המהרש''ל",
    "source": "bing"
  }
},
{
  "type": "way",
  "id": 129747238,
  "timestamp": "2023-10-14T00:56:57Z",
  "version": 5,
  "changeset": 142556002,
  "user": "NorthCrab",
  "uid": 15215305,
  "nodes": [
    1430808588,
    1430808591
  ],
  "tags": {
    "highway": "residential",
    "name": "התור",
    "name:ar": "هَتور",
    "name:en": "HaTor",
    "name:en1": "Ha'Tor",
    "name:he": "התור",
    "source": "bing"
  }
},
{
  "type": "way",
  "id": 129747240,
  "timestamp": "2023-10-14T00:56:57Z",
  "version": 5,
  "changeset": 142556002,
  "user": "NorthCrab",
  "uid": 15215305,
  "nodes": [
    1430808711,
    1430808688,
    1430808570
  ],
  "tags": {
    "highway": "residential",
    "name": "הזמיר",
    "name:en": "HaZamir",
    "name:en1": "Ha'Zamir",
    "name:en2": "Zamir",
    "name:he": "הזמיר",
    "source": "bing"
  }
},
{
  "type": "way",
  "id": 129747241,
  "timestamp": "2023-10-14T00:56:57Z",
  "version": 5,
  "changeset": 142556002,
  "user": "NorthCrab",
  "uid": 15215305,
  "nodes": [
    1430808583,
    1430808679,
    1430808612
  ],
  "tags": {
    "highway": "residential",
    "name": "הזמיר",
    "name:en": "HaZamir",
    "name:en1": "Ha'Zamir",
    "name:en2": "Zamir",
    "name:he": "הזמיר",
    "source": "bing"
  }
},
{
  "type": "way",
  "id": 129747243,
  "timestamp": "2023-10-14T00:56:57Z",
  "version": 5,
  "changeset": 142556002,
  "user": "NorthCrab",
  "uid": 15215305,
  "nodes": [
    1430808594,
    1430808610
  ],
  "tags": {
    "highway": "residential",
    "name": "התור",
    "name:ar": "هَتور",
    "name:en": "HaTor",
    "name:en1": "Ha'Tor",
    "name:he": "התור",
    "source": "bing"
  }
},
{
  "type": "way",
  "id": 129747246,
  "timestamp": "2023-10-14T00:56:57Z",
  "version": 5,
  "changeset": 142556002,
  "user": "NorthCrab",
  "uid": 15215305,
  "nodes": [
    1430808638,
    1430808679,
    1430808690
  ],
  "tags": {
    "highway": "residential",
    "name": "הזמיר",
    "name:en": "HaZamir",
    "name:en1": "Ha'Zamir",
    "name:en2": "Zamir",
    "name:he": "הזמיר",
    "source": "bing"
  }
},
{
  "type": "way",
  "id": 129747247,
  "timestamp": "2023-10-14T00:56:57Z",
  "version": 5,
  "changeset": 142556002,
  "user": "NorthCrab",
  "uid": 15215305,
  "nodes": [
    1430808706,
    1430808688
  ],
  "tags": {
    "highway": "residential",
    "name": "הזמיר",
    "name:en": "HaZamir",
    "name:en1": "Ha'Zamir",
    "name:en2": "Zamir",
    "name:he": "הזמיר",
    "source": "bing"
  }
},
{
  "type": "way",
  "id": 129747249,
  "timestamp": "2023-10-14T00:56:57Z",
  "version": 5,
  "changeset": 142556002,
  "user": "NorthCrab",
  "uid": 15215305,
  "nodes": [
    1430808673,
    1430808638,
    1430808586
  ],
  "tags": {
    "highway": "residential",
    "name": "הזמיר",
    "name:en": "HaZamir",
    "name:en1": "Ha'Zamir",
    "name:en2": "Zamir",
    "name:he": "הזמיר",
    "source": "bing"
  }
},
{
  "type": "way",
  "id": 129747253,
  "timestamp": "2024-05-30T17:27:06Z",
  "version": 7,
  "changeset": 152047169,
  "user": "chaim255",
  "uid": 21297578,
  "nodes": [
    1430808687,
    5008204793,
    1430808689,
    5008204794,
    1430808691,
    5008204795,
    1430808692,
    5008204796,
    1430808702,
    5008204797,
    1430808704,
    5008204798,
    1430806302
  ],
  "tags": {
    "highway": "residential",
    "name": "רמב\"ן",
    "name:ar": "رامبان",
    "name:en": "Ramban",
    "name:he": "רמבן",
    "name:ru": "Рамбан",
    "source": "bing"
  }
},
{
  "type": "way",
  "id": 129747407,
  "timestamp": "2024-05-30T17:27:06Z",
  "version": 6,
  "changeset": 152047169,
  "user": "chaim255",
  "uid": 21297578,
  "nodes": [
    1430809947,
    1430809953,
    1430809956
  ],
  "tags": {
    "highway": "residential",
    "name": "הרא\"ש",
    "name:en": "HaRash",
    "name:he": "הראש",
    "source": "bing"
  }
},
{
  "type": "way",
  "id": 129747408,
  "timestamp": "2024-05-30T17:27:06Z",
  "version": 5,
  "changeset": 152047169,
  "user": "chaim255",
  "uid": 21297578,
  "nodes": [
    1430809938,
    1430809952,
    1430809954,
    1430809955,
    2517142790,
    1430809950,
    650150133
  ],
  "tags": {
    "highway": "residential",
    "name": "רב ניסים גאון",
    "name:en": "Rabbi Nisim Gaon",
    "name:he": "ניסים גאון",
    "sidewalk": "both",
    "source": "bing",
    "surface": "asphalt"
  }
},
{
  "type": "way",
  "id": 129747410,
  "timestamp": "2024-05-30T17:27:06Z",
  "version": 6,
  "changeset": 152047169,
  "user": "chaim255",
  "uid": 21297578,
  "nodes": [
    1430809943,
    1430809944,
    1430809947,
    1430809948
  ],
  "tags": {
    "highway": "residential",
    "name": "הרא\"ש",
    "name:en": "HaRash",
    "name:he": "הראש",
    "source": "bing"
  }
},
{
  "type": "way",
  "id": 129747411,
  "timestamp": "2024-05-30T17:27:06Z",
  "version": 6,
  "changeset": 152047169,
  "user": "chaim255",
  "uid": 21297578,
  "nodes": [
    653124900,
    1430809960,
    1430809957,
    1430809958,
    1430809959
  ],
  "tags": {
    "highway": "residential",
    "name": "הרא\"ש",
    "name:en": "HaRash",
    "name:he": "הראש",
    "source": "bing"
  }
},
{
  "type": "way",
  "id": 129747413,
  "timestamp": "2023-10-14T00:56:57Z",
  "version": 5,
  "changeset": 142556002,
  "user": "NorthCrab",
  "uid": 15215305,
  "nodes": [
    1430809940,
    1430809937
  ],
  "tags": {
    "fixme": "name uncertain",
    "highway": "residential",
    "name": "הלל",
    "name:en": "Hillel",
    "name:en1": "Hellel",
    "name:en2": "Halel",
    "name:en3": "Hilel",
    "name:he": "הלל"
  }
},
{
  "type": "way",
  "id": 185464666,
  "timestamp": "2012-10-12T13:51:12Z",
  "version": 1,
  "changeset": 13467249,
  "user": "Mr_Israel",
  "uid": 22684,
  "nodes": [
    387002252,
    331161983
  ],
  "tags": {
    "highway": "primary",
    "maxspeed": "90",
    "oneway": "yes",
    "ref": "444",
    "surface": "asphalt"
  }
},
{
  "type": "way",
  "id": 185465089,
  "timestamp": "2023-10-20T13:55:29Z",
  "version": 12,
  "changeset": 142871982,
  "user": "Aleksandar Matejevic",
  "uid": 8724788,
  "nodes": [
    10899449769,
    6830404190,
    6830404191,
    6830404194,
    6830404196,
    6830404197,
    6830404199,
    6830404249,
    6830404250,
    6830404253,
    6830404254,
    6830404255,
    6830404256,
    6830404257,
    6830404258,
    6830404259,
    6830404260,
    6830404261,
    6830404262,
    6830404263,
    6830404264,
    6830404265,
    6830404269,
    6830404273,
    6830404278,
    6830404286,
    6830404294,
    6830404266,
    6830404268,
    6830404270,
    6830404272,
    6830404274,
    6830404277,
    6830404280,
    6830404173,
    6830404285,
    6830404287,
    6830404289,
    6830404291,
    6830404293,
    6830404181,
    6830404295,
    6830404085
  ],
  "tags": {
    "highway": "primary",
    "maxspeed": "90",
    "oneway": "yes",
    "ref": "444",
    "surface": "asphalt"
  }
},
{
  "type": "way",
  "id": 244388546,
  "timestamp": "2024-06-03T08:53:52Z",
  "version": 5,
  "changeset": 152190188,
  "user": "chaim255",
  "uid": 21297578,
  "nodes": [
    5000201836,
    2517142768,
    2517142658
  ],
  "tags": {
    "highway": "residential",
    "name": "יונתן בן עוזיאל",
    "name:en": "Ben Uziel",
    "name:he": "בן עוזיאל"
  }
},
{
  "type": "way",
  "id": 244388554,
  "timestamp": "2023-04-28T09:43:23Z",
  "version": 5,
  "changeset": 135460609,
  "user": "Gan_toon",
  "uid": 15204683,
  "nodes": [
    2517142740,
    2517142683,
    2517142770,
    5032962502,
    2517142598,
    10839024342,
    10848726776,
    10839024347,
    10848407693,
    2517142627,
    5032962505,
    5032962504,
    5032962506,
    2517142539,
    2517142665,
    5032962507,
    2517142703,
    2517142575,
    5032962503,
    2517142570
  ],
  "tags": {
    "highway": "residential",
    "source": "bing"
  }
},
{
  "type": "way",
  "id": 244388555,
  "timestamp": "2023-10-14T00:53:14Z",
  "version": 3,
  "changeset": 142555824,
  "user": "NorthCrab",
  "uid": 15215305,
  "nodes": [
    2517142732,
    2517142540
  ],
  "tags": {
    "highway": "residential",
    "name": "רש\"י",
    "name:ar": "راشد",
    "name:en": "Rashi",
    "name:he": "רש\"י",
    "name:ru": "Раши",
    "note": "fixme"
  }
},
{
  "type": "way",
  "id": 244388568,
  "timestamp": "2023-10-14T00:53:14Z",
  "version": 3,
  "changeset": 142555824,
  "user": "NorthCrab",
  "uid": 15215305,
  "nodes": [
    2517142568,
    2517142543
  ],
  "tags": {
    "highway": "residential",
    "name": "רש\"י",
    "name:ar": "راشد",
    "name:en": "Rashi",
    "name:he": "רש\"י",
    "name:ru": "Раши",
    "note": "fixme"
  }
},
{
  "type": "way",
  "id": 244388570,
  "timestamp": "2024-06-03T08:52:21Z",
  "version": 5,
  "changeset": 152190125,
  "user": "chaim255",
  "uid": 21297578,
  "nodes": [
    2517142785,
    2517142548,
    2517142681
  ],
  "tags": {
    "highway": "residential",
    "name": "rch מאיר",
    "name:he": "רבי מאיר"
  }
},
{
  "type": "way",
  "id": 362066754,
  "timestamp": "2023-10-14T00:53:14Z",
  "version": 4,
  "changeset": 142555824,
  "user": "NorthCrab",
  "uid": 15215305,
  "nodes": [
    4695693503,
    3664473030
  ],
  "tags": {
    "highway": "residential",
    "name": "אבטליון",
    "name:en": "Avtalyon",
    "name:en1": "Avtalion",
    "name:he": "אבטליון",
    "oneway": "yes"
  }
},
{
  "type": "way",
  "id": 362066755,
  "timestamp": "2017-02-20T16:01:24Z",
  "version": 2,
  "changeset": 46248012,
  "user": "Sanniu",
  "uid": 1206509,
  "nodes": [
    3664473043,
    3664473044,
    3664473045,
    3664473046,
    3664473047,
    3664473029,
    3664473031,
    3664473032,
    3664473033,
    4695693504,
    3664473034,
    3664473035,
    3664473030,
    3664473036,
    3664473037,
    3664473038,
    3664473039,
    3664473040,
    3664473041,
    3664473042,
    387000083,
    3664473043
  ],
  "tags": {
    "highway": "residential",
    "junction": "roundabout"
  }
},
{
  "type": "way",
  "id": 398602055,
  "timestamp": "2023-10-14T00:53:14Z",
  "version": 12,
  "changeset": 142555824,
  "user": "NorthCrab",
  "uid": 15215305,
  "nodes": [
    4013481106,
    387001319,
    387001320,
    5000210246,
    387001321,
    5000210250,
    10683418601,
    387001322,
    5000210253,
    387001323,
    387001324,
    387001325,
    387001326,
    387001327,
    1430806321,
    1430806319,
    387001328,
    650148178,
    387001329,
    5000201847,
    387001330,
    9801732033
  ],
  "tags": {
    "highway": "tertiary",
    "name": "רבן יוחנן בן זכאי",
    "name:en": "Raban Yohanan Ben Zakai",
    "name:he": "רבן יוחנן בן זכאי",
    "oneway": "yes",
    "surface": "asphalt"
  }
},
{
  "type": "way",
  "id": 398602058,
  "timestamp": "2023-10-14T00:53:14Z",
  "version": 5,
  "changeset": 142555824,
  "user": "NorthCrab",
  "uid": 15215305,
  "nodes": [
    4013481109,
    5002090437,
    5002090436,
    387001597,
    5002090438,
    1430806306,
    387001598,
    387001599,
    5002090441,
    5002090442,
    1430806189,
    387001600,
    387001601,
    5002090402,
    386999735
  ],
  "tags": {
    "highway": "tertiary",
    "name": "רבן יוחנן בן זכאי",
    "name:en": "Raban Yohanan Ben Zakai",
    "name:he": "רבן יוחנן בן זכאי",
    "oneway": "yes",
    "surface": "asphalt"
  }
},
{
  "type": "way",
  "id": 398602059,
  "timestamp": "2023-02-26T10:19:03Z",
  "version": 23,
  "changeset": 133032726,
  "user": "luja",
  "uid": 120636,
  "nodes": [
    4013481122,
    4013481123,
    4013481124,
    4013481106,
    4013481125,
    4013481110,
    4013481111,
    4013481112,
    4013481113,
    4013481119,
    4013481109,
    4013481120,
    4013481121,
    4013481108,
    4013481114,
    4013481115,
    4013481116,
    387000511,
    4013481118,
    4013481122
  ],
  "tags": {
    "check_date:surface": "2023-02-26",
    "highway": "tertiary",
    "junction": "roundabout",
    "surface": "asphalt"
  }
},
{
  "type": "way",
  "id": 457378771,
  "timestamp": "2023-06-01T10:15:59Z",
  "version": 7,
  "changeset": 136824001,
  "user": "BMM994",
  "uid": 189946,
  "nodes": [
    7031905782,
    7031906844,
    7031905780,
    7031905779,
    7031911994,
    7031905776,
    7031905775,
    7031912034,
    7031905773,
    7031905772,
    7031905771,
    7031905769,
    10943778027,
    7031905765,
    7031905761,
    7031905759,
    7031905758,
    10943778081,
    7031905757,
    7031905762,
    7031905782
  ],
  "tags": {
    "highway": "secondary",
    "junction": "roundabout",
    "ref": "4711",
    "surface": "asphalt"
  }
},
{
  "type": "way",
  "id": 475885777,
  "timestamp": "2023-10-14T00:53:14Z",
  "version": 3,
  "changeset": 142555824,
  "user": "NorthCrab",
  "uid": 15215305,
  "nodes": [
    4695693502,
    4695693501,
    3664473045
  ],
  "tags": {
    "highway": "residential",
    "name": "אבטליון",
    "name:en": "Avtalyon",
    "name:en1": "Avtalion",
    "name:he": "אבטליון",
    "oneway": "yes"
  }
},
{
  "type": "way",
  "id": 475885778,
  "timestamp": "2023-10-14T00:53:14Z",
  "version": 3,
  "changeset": 142555824,
  "user": "NorthCrab",
  "uid": 15215305,
  "nodes": [
    387000083,
    4695693502
  ],
  "tags": {
    "highway": "residential",
    "name": "אבטליון",
    "name:en": "Avtalyon",
    "name:en1": "Avtalion",
    "name:he": "אבטליון",
    "oneway": "yes"
  }
},
{
  "type": "way",
  "id": 475885779,
  "timestamp": "2023-10-14T00:53:14Z",
  "version": 4,
  "changeset": 142555824,
  "user": "NorthCrab",
  "uid": 15215305,
  "nodes": [
    4695693503,
    5000202278,
    387000085,
    1430808610,
    1430808690,
    387000086
  ],
  "tags": {
    "highway": "residential",
    "name": "אבטליון",
    "name:en": "Avtalyon",
    "name:en1": "Avtalion",
    "name:he": "אבטליון"
  }
},
{
  "type": "way",
  "id": 475885780,
  "timestamp": "2023-10-14T00:53:14Z",
  "version": 3,
  "changeset": 142555824,
  "user": "NorthCrab",
  "uid": 15215305,
  "nodes": [
    4695693504,
    4695693503
  ],
  "tags": {
    "highway": "residential",
    "name": "אבטליון",
    "name:en": "Avtalyon",
    "name:en1": "Avtalion",
    "name:he": "אבטליון",
    "oneway": "yes"
  }
},
{
  "type": "way",
  "id": 512142397,
  "timestamp": "2019-12-04T12:35:30Z",
  "version": 2,
  "changeset": 77936958,
  "user": "OrDal",
  "uid": 10294500,
  "nodes": [
    5008204188,
    5008204187,
    5008204186,
    5008204185,
    5008204184,
    5008204183,
    5008204190,
    5008204182,
    5008204181,
    5008204180,
    5008204179,
    5008204178,
    5008204191,
    5008204177,
    5008204176,
    5008204175,
    5008204174,
    5008204173,
    5008204189,
    5008204172,
    5008204171,
    5008204170,
    5008204169,
    5008204168,
    5008204167,
    653125042,
    5008204188
  ],
  "tags": {
    "highway": "residential",
    "junction": "roundabout"
  }
},
{
  "type": "way",
  "id": 512142398,
  "timestamp": "2023-10-14T00:53:14Z",
  "version": 3,
  "changeset": 142555824,
  "user": "NorthCrab",
  "uid": 15215305,
  "nodes": [
    653125077,
    1430806130,
    5008204190
  ],
  "tags": {
    "highway": "residential",
    "name": "הרב המאירי",
    "name:en": "HaRav HaMeiri",
    "name:he": "הרב המאירי"
  }
},
{
  "type": "way",
  "id": 512142399,
  "timestamp": "2023-10-14T00:53:14Z",
  "version": 4,
  "changeset": 142555824,
  "user": "NorthCrab",
  "uid": 15215305,
  "nodes": [
    653125042,
    7031905718,
    7031912098
  ],
  "tags": {
    "highway": "residential",
    "name": "רבי חייא",
    "name:en": "Rabi Hiya",
    "name:he": "רבי חייא"
  }
},
{
  "type": "way",
  "id": 566197239,
  "timestamp": "2020-05-18T11:25:08Z",
  "version": 2,
  "changeset": 85380579,
  "user": "ar58",
  "uid": 572423,
  "nodes": [
    331161983,
    387002255,
    7532233319,
    5451994687
  ],
  "tags": {
    "highway": "primary",
    "maxspeed": "90",
    "oneway": "yes",
    "ref": "444",
    "surface": "asphalt"
  }
},
{
  "type": "way",
  "id": 752327928,
  "timestamp": "2023-03-14T05:45:35Z",
  "version": 2,
  "changeset": 133650102,
  "user": "luja",
  "uid": 120636,
  "nodes": [
    7031912018,
    7031912008,
    7031912005,
    7031912002,
    7031912000,
    7031911997,
    7031912012
  ],
  "tags": {
    "highway": "secondary",
    "oneway": "yes",
    "ref": "4711",
    "surface": "asphalt"
  }
},
{
  "type": "way",
  "id": 752327929,
  "timestamp": "2023-03-14T05:45:35Z",
  "version": 2,
  "changeset": 133650102,
  "user": "luja",
  "uid": 120636,
  "nodes": [
    7031912012,
    7031912015,
    7031912017,
    7031912013,
    7031912014,
    7031912016
  ],
  "tags": {
    "highway": "secondary",
    "oneway": "yes",
    "ref": "4711",
    "surface": "asphalt"
  }
},
{
  "type": "way",
  "id": 752327930,
  "timestamp": "2023-06-01T10:15:59Z",
  "version": 4,
  "changeset": 136824001,
  "user": "BMM994",
  "uid": 189946,
  "nodes": [
    7031905753,
    7031905741,
    7031905728,
    7031905727,
    7031909212,
    10943772544,
    7031905744
  ],
  "tags": {
    "highway": "secondary",
    "oneway": "yes",
    "ref": "4711",
    "surface": "asphalt"
  }
},
{
  "type": "way",
  "id": 752327932,
  "timestamp": "2019-12-04T12:35:30Z",
  "version": 1,
  "changeset": 77936958,
  "user": "OrDal",
  "uid": 10294500,
  "nodes": [
    7031912020,
    7031912019,
    7031905742,
    7031912091,
    7031905737,
    7031912097,
    7031905717,
    7031912095,
    7031912098,
    7031905720,
    7031912056,
    7031912096,
    7031905748,
    7031912063,
    7031912094,
    7031911985,
    7031905723,
    7031905722,
    7031905719,
    7031905733,
    7031912021,
    7031912020
  ],
  "tags": {
    "highway": "tertiary",
    "junction": "roundabout"
  }
},
{
  "type": "way",
  "id": 752327933,
  "timestamp": "2024-05-30T17:27:06Z",
  "version": 6,
  "changeset": 152047169,
  "user": "chaim255",
  "uid": 21297578,
  "nodes": [
    7031912076,
    387006544,
    387006545,
    10943777797,
    7031912054,
    7031911985
  ],
  "tags": {
    "highway": "tertiary",
    "name": "רבי יהודה הנשיא",
    "name:ar": "رابي يهودا هناسي",
    "name:en": "Rabbi Yehuda HaNasi",
    "name:en1": "Rabi Yehuda Ha'Nassi",
    "name:en2": "Yehuda HaNasi",
    "name:en3": "Rabi Yehuda HaNasi",
    "name:he": "יהודה הנשיא",
    "oneway": "yes"
  }
},
{
  "type": "way",
  "id": 752327934,
  "timestamp": "2023-06-01T10:15:59Z",
  "version": 3,
  "changeset": 136824001,
  "user": "BMM994",
  "uid": 189946,
  "nodes": [
    7031905744,
    10943772543,
    7031905736,
    7031905739,
    7031905730,
    7031905731,
    7031905735,
    7031905752,
    7031905751,
    7031905753
  ],
  "tags": {
    "highway": "secondary",
    "oneway": "yes",
    "ref": "4711",
    "surface": "asphalt"
  }
},
{
  "type": "way",
  "id": 752327938,
  "timestamp": "2023-03-14T05:47:33Z",
  "version": 2,
  "changeset": 133650102,
  "user": "luja",
  "uid": 120636,
  "nodes": [
    7031905779,
    7031905756,
    7031905770,
    7031905753
  ],
  "tags": {
    "highway": "secondary",
    "ref": "4711",
    "surface": "asphalt"
  }
},
{
  "type": "way",
  "id": 752327939,
  "timestamp": "2024-05-30T17:27:06Z",
  "version": 5,
  "changeset": 152047169,
  "user": "chaim255",
  "uid": 21297578,
  "nodes": [
    7031905748,
    387006562,
    387006563,
    7031912079
  ],
  "tags": {
    "highway": "tertiary",
    "name": "רבי יהודה הנשיא",
    "name:ar": "رابي يهودا هناسي",
    "name:en": "Rabbi Yehuda HaNasi",
    "name:en1": "Rabi Yehuda Ha'Nassi",
    "name:en2": "Yehuda HaNasi",
    "name:en3": "Rabi Yehuda HaNasi",
    "name:he": "יהודה הנשיא",
    "oneway": "yes"
  }
},
{
  "type": "way",
  "id": 773877972,
  "timestamp": "2023-10-14T00:49:31Z",
  "version": 6,
  "changeset": 142555699,
  "user": "NorthCrab",
  "uid": 15215305,
  "nodes": [
    9801732037,
    9801732023,
    387001586,
    5032964039,
    1430806301,
    650167929,
    387001587,
    387001588,
    650153342,
    387001589,
    650145604,
    387001590,
    1430806132,
    387001591,
    5000210252,
    387001592,
    5000210251,
    5002089615,
    387001593,
    5000210247,
    387001594,
    387001595,
    387001596,
    4013481111
  ],
  "tags": {
    "highway": "tertiary",
    "name": "רבן יוחנן בן זכאי",
    "name:en": "Raban Yohanan Ben Zakai",
    "name:he": "רבן יוחנן בן זכאי",
    "oneway": "yes",
    "surface": "asphalt"
  }
},
{
  "type": "way",
  "id": 773877974,
  "timestamp": "2024-05-30T17:27:06Z",
  "version": 7,
  "changeset": 152047169,
  "user": "chaim255",
  "uid": 21297578,
  "nodes": [
    7223572595,
    7223572593,
    387210793,
    653125069,
    387210794,
    387210795,
    387210796,
    387210797,
    387210798,
    9801732122,
    9801732137
  ],
  "tags": {
    "highway": "tertiary",
    "name": "רשב\"י",
    "name:en": "Rashbi",
    "name:he": "רשבי",
    "oneway": "yes"
  }
},
{
  "type": "way",
  "id": 773877975,
  "timestamp": "2023-03-14T05:45:34Z",
  "version": 3,
  "changeset": 133650102,
  "user": "luja",
  "uid": 120636,
  "nodes": [
    7255341481,
    7223572598,
    7255341474,
    7255341471,
    7255341472,
    7255341475,
    7255341470,
    387001341,
    387210547,
    7255341476,
    7255341477,
    7255341478,
    7255341479,
    7223572592,
    7255341473,
    387210631,
    7255341480,
    7223572595,
    7223572596,
    7223572597,
    7255341481
  ],
  "tags": {
    "highway": "tertiary",
    "junction": "roundabout",
    "surface": "asphalt"
  }
},
{
  "type": "way",
  "id": 777484749,
  "timestamp": "2023-10-14T00:49:31Z",
  "version": 4,
  "changeset": 142555699,
  "user": "NorthCrab",
  "uid": 15215305,
  "nodes": [
    7223572592,
    7223572591,
    7223572590,
    387001342,
    387001343,
    5032993574,
    387005529,
    387005530,
    5032993575,
    387005531,
    387005533,
    650148184,
    2517142621,
    387005535,
    387005538,
    5032993561,
    387005540,
    7031912081,
    7031912086,
    7031912090
  ],
  "tags": {
    "highway": "tertiary",
    "name": "רבן יוחנן בן זכאי",
    "name:en": "Raban Yohanan Ben Zakai",
    "name:he": "רבן יוחנן בן זכאי",
    "oneway": "yes",
    "surface": "asphalt"
  }
},
{
  "type": "way",
  "id": 908507511,
  "timestamp": "2023-12-12T15:46:25Z",
  "version": 2,
  "changeset": 145043427,
  "user": "sivan00",
  "uid": 2045570,
  "nodes": [
    8435772287,
    8435772291,
    8435772292,
    8435772293,
    8435772294,
    8435772295
  ],
  "tags": {
    "highway": "residential"
  }
},
{
  "type": "way",
  "id": 1009294700,
  "timestamp": "2021-12-05T12:59:28Z",
  "version": 1,
  "changeset": 114581280,
  "user": "hatul",
  "uid": 686490,
  "nodes": [
    7031912035,
    7031911988,
    7031911987,
    7031911986,
    7031912034
  ],
  "tags": {
    "highway": "secondary",
    "ref": "4711"
  }
},
{
  "type": "way",
  "id": 1064297922,
  "timestamp": "2023-10-20T13:55:29Z",
  "version": 4,
  "changeset": 142871982,
  "user": "Aleksandar Matejevic",
  "uid": 8724788,
  "nodes": [
    6830404183,
    6830404099,
    6830404101,
    6830404200,
    6830404094,
    6830404090,
    6830404088,
    6830404233,
    6830404231,
    6830404229,
    6830404246,
    6830404240,
    6830404235,
    6830404224,
    6830404248,
    6830404244,
    6830404228,
    6830404225,
    6830404103,
    6830404114,
    7532233307,
    6830404166,
    6830404162,
    6830404160,
    6830404158,
    6830404132,
    6830404130,
    6830404128,
    6830404127,
    6830404125,
    6830404123,
    6830404188,
    6830404195,
    6830404193,
    6830404192,
    387002253,
    10905168989,
    387002252
  ],
  "tags": {
    "highway": "primary",
    "maxspeed": "90",
    "oneway": "yes",
    "ref": "444",
    "surface": "asphalt"
  }
},
{
  "type": "way",
  "id": 1067609540,
  "timestamp": "2023-10-14T00:49:31Z",
  "version": 4,
  "changeset": 142555699,
  "user": "NorthCrab",
  "uid": 15215305,
  "nodes": [
    650160959,
    9801715696,
    9801715695,
    9801715694,
    9801715693,
    9801732019
  ],
  "tags": {
    "highway": "tertiary",
    "name": "רבי שמעון בן שטח",
    "name:en": "Rabbi Shimon Ben Shetach",
    "name:he": "רבי שמעון בן שטח",
    "oneway": "yes",
    "source": "bing",
    "surface": "asphalt"
  }
},
{
  "type": "way",
  "id": 1067609541,
  "timestamp": "2023-10-14T00:49:31Z",
  "version": 4,
  "changeset": 142555699,
  "user": "NorthCrab",
  "uid": 15215305,
  "nodes": [
    9801715707,
    9801715692,
    9801715691,
    9801715690,
    650160959
  ],
  "tags": {
    "highway": "tertiary",
    "name": "רבי שמעון בן שטח",
    "name:en": "Rabbi Shimon Ben Shetach",
    "name:he": "רבי שמעון בן שטח",
    "oneway": "yes",
    "source": "bing",
    "surface": "asphalt"
  }
},
{
  "type": "way",
  "id": 1067609542,
  "timestamp": "2023-10-14T00:49:31Z",
  "version": 3,
  "changeset": 142555699,
  "user": "NorthCrab",
  "uid": 15215305,
  "nodes": [
    5008203717,
    9801715699,
    9801715698,
    9801715697
  ],
  "tags": {
    "highway": "residential",
    "name": "רבי יהושוע",
    "name:en": "Rabi Yehoshua",
    "name:en1": "Rabbi Yehoshua",
    "name:he": "רבי יהושוע",
    "name:he1": "רבי יהושע",
    "oneway": "yes",
    "source": "bing"
  }
},
{
  "type": "way",
  "id": 1067609543,
  "timestamp": "2023-10-14T00:49:31Z",
  "version": 3,
  "changeset": 142555699,
  "user": "NorthCrab",
  "uid": 15215305,
  "nodes": [
    9801715711,
    5008203716,
    5008203717
  ],
  "tags": {
    "highway": "residential",
    "name": "רבי יהושוע",
    "name:en": "Rabi Yehoshua",
    "name:en1": "Rabbi Yehoshua",
    "name:he": "רבי יהושוע",
    "name:he1": "רבי יהושע",
    "oneway": "yes",
    "source": "bing"
  }
},
{
  "type": "way",
  "id": 1067609544,
  "timestamp": "2023-10-14T00:49:31Z",
  "version": 3,
  "changeset": 142555699,
  "user": "NorthCrab",
  "uid": 15215305,
  "nodes": [
    9801715701,
    9801715700,
    9801715704
  ],
  "tags": {
    "highway": "tertiary",
    "name": "רבי שמעון בן שטח",
    "name:en": "Rabbi Shimon Ben Shetach",
    "name:he": "רבי שמעון בן שטח",
    "oneway": "yes",
    "source": "bing"
  }
},
{
  "type": "way",
  "id": 1067609545,
  "timestamp": "2023-10-14T00:49:31Z",
  "version": 3,
  "changeset": 142555699,
  "user": "NorthCrab",
  "uid": 15215305,
  "nodes": [
    9801715704,
    9801715703,
    9801715702,
    9801715712
  ],
  "tags": {
    "highway": "tertiary",
    "name": "רבי שמעון בן שטח",
    "name:en": "Rabbi Shimon Ben Shetach",
    "name:he": "רבי שמעון בן שטח",
    "oneway": "yes",
    "source": "bing"
  }
},
{
  "type": "way",
  "id": 1067609546,
  "timestamp": "2023-10-14T00:49:31Z",
  "version": 3,
  "changeset": 142555699,
  "user": "NorthCrab",
  "uid": 15215305,
  "nodes": [
    9801732155,
    650149647,
    650160959
  ],
  "tags": {
    "highway": "tertiary",
    "name": "רבי שמעון בן שטח",
    "name:en": "Rabbi Shimon Ben Shetach",
    "name:he": "רבי שמעון בן שטח",
    "source": "bing"
  }
},
{
  "type": "way",
  "id": 1067609547,
  "timestamp": "2022-06-07T13:41:50Z",
  "version": 1,
  "changeset": 122073548,
  "user": "herdelkuz",
  "uid": 1363117,
  "nodes": [
    9801732019,
    9801732017,
    9801715716,
    9801715715,
    9801715701,
    9801715714,
    9801732020,
    9801715713,
    9801715712,
    9801715711,
    9801732018,
    9801715710,
    9801715709,
    9801715697,
    9801715708,
    9801715707,
    9801715706,
    9801715705,
    9801732019
  ],
  "tags": {
    "highway": "tertiary",
    "junction": "roundabout"
  }
},
{
  "type": "way",
  "id": 1067609548,
  "timestamp": "2023-10-14T00:49:31Z",
  "version": 4,
  "changeset": 142555699,
  "user": "NorthCrab",
  "uid": 15215305,
  "nodes": [
    9801732021,
    387001331,
    1430787581,
    387001333,
    1430773818,
    387001334,
    5000201849,
    387001335,
    5000201848,
    387001336,
    387001337,
    5000201857,
    387001338,
    387001339,
    5000201853,
    5032993569,
    387001340,
    5032993571,
    7255341470
  ],
  "tags": {
    "highway": "tertiary",
    "name": "רבן יוחנן בן זכאי",
    "name:en": "Raban Yohanan Ben Zakai",
    "name:he": "רבן יוחנן בן זכאי",
    "oneway": "yes",
    "surface": "asphalt"
  }
},
{
  "type": "way",
  "id": 1067609549,
  "timestamp": "2023-10-14T00:49:31Z",
  "version": 4,
  "changeset": 142555699,
  "user": "NorthCrab",
  "uid": 15215305,
  "nodes": [
    7255341471,
    5032993572,
    387001576,
    5032993570,
    5000201854,
    387001577,
    5000201855,
    5000201856,
    387001578,
    387001579,
    387001580,
    5000201852,
    387001581,
    5000201851,
    387001582,
    5000201850,
    387001583,
    387001584,
    9801732022,
    9801732044
  ],
  "tags": {
    "highway": "tertiary",
    "name": "רבן יוחנן בן זכאי",
    "name:en": "Raban Yohanan Ben Zakai",
    "name:he": "רבן יוחנן בן זכאי",
    "oneway": "yes",
    "surface": "asphalt"
  }
},
{
  "type": "way",
  "id": 1067609550,
  "timestamp": "2023-03-16T07:48:13Z",
  "version": 2,
  "changeset": 133736359,
  "user": "luja",
  "uid": 120636,
  "nodes": [
    9801732047,
    9801732045,
    9801732044,
    9801732043,
    9801732024,
    9801732042,
    9801732041,
    9801732040,
    9801732039,
    9801732038,
    9801732048,
    9801732037,
    9801732036,
    9801732035,
    9801732046,
    9801732034,
    9801732033,
    9801732032,
    9801732031,
    9801732030,
    9801732029,
    9801732021,
    9801732028,
    9801732027,
    9801732047
  ],
  "tags": {
    "highway": "tertiary",
    "junction": "roundabout",
    "surface": "asphalt"
  }
},
{
  "type": "way",
  "id": 1067609551,
  "timestamp": "2023-10-14T00:49:31Z",
  "version": 3,
  "changeset": 142555699,
  "user": "NorthCrab",
  "uid": 15215305,
  "nodes": [
    5000201841,
    9801732049,
    9801732050,
    9801732070
  ],
  "tags": {
    "highway": "residential",
    "name": "רש\"י",
    "name:ar": "راشد",
    "name:en": "Rashi",
    "name:he": "רש\"י",
    "name:ru": "Раши",
    "oneway": "yes"
  }
},
{
  "type": "way",
  "id": 1067609552,
  "timestamp": "2023-10-14T00:49:31Z",
  "version": 3,
  "changeset": 142555699,
  "user": "NorthCrab",
  "uid": 15215305,
  "nodes": [
    9801732051,
    5032964041,
    5000201841
  ],
  "tags": {
    "highway": "residential",
    "name": "רש\"י",
    "name:ar": "راشد",
    "name:en": "Rashi",
    "name:he": "רש\"י",
    "name:ru": "Раши",
    "oneway": "yes"
  }
},
{
  "type": "way",
  "id": 1067609553,
  "timestamp": "2023-10-14T00:49:31Z",
  "version": 3,
  "changeset": 142555699,
  "user": "NorthCrab",
  "uid": 15215305,
  "nodes": [
    9801732055,
    9801732054,
    9801732058
  ],
  "tags": {
    "highway": "residential",
    "name": "בן עוזיאל",
    "name:en": "Ben Uziel",
    "name:he": "בן עוזיאל",
    "oneway": "yes"
  }
},
{
  "type": "way",
  "id": 1067609554,
  "timestamp": "2023-10-14T00:49:31Z",
  "version": 3,
  "changeset": 142555699,
  "user": "NorthCrab",
  "uid": 15215305,
  "nodes": [
    9801732058,
    9801732057,
    9801732056
  ],
  "tags": {
    "highway": "residential",
    "name": "בן עוזיאל",
    "name:en": "Ben Uziel",
    "name:he": "בן עוזיאל",
    "oneway": "yes"
  }
},
{
  "type": "way",
  "id": 1067609555,
  "timestamp": "2023-10-14T00:49:31Z",
  "version": 3,
  "changeset": 142555699,
  "user": "NorthCrab",
  "uid": 15215305,
  "nodes": [
    9801732077,
    9801732059,
    387211144
  ],
  "tags": {
    "highway": "residential",
    "name": "מאיר",
    "name:en": "Meir",
    "name:he": "מאיר",
    "oneway": "yes"
  }
},
{
  "type": "way",
  "id": 1067609556,
  "timestamp": "2023-10-14T00:49:31Z",
  "version": 3,
  "changeset": 142555699,
  "user": "NorthCrab",
  "uid": 15215305,
  "nodes": [
    387211144,
    9801732061,
    9801732060
  ],
  "tags": {
    "highway": "residential",
    "name": "מאיר",
    "name:en": "Meir",
    "name:he": "מאיר",
    "oneway": "yes"
  }
},
{
  "type": "way",
  "id": 1067609557,
  "timestamp": "2022-06-07T13:41:50Z",
  "version": 1,
  "changeset": 122073548,
  "user": "herdelkuz",
  "uid": 1363117,
  "nodes": [
    9801732082,
    9801732080,
    9801732056,
    9801732079,
    9801732078,
    9801732077,
    9801732076,
    9801732083,
    9801732075,
    9801732060,
    9801732074,
    9801732073,
    9801732051,
    9801732072,
    9801732081,
    9801732071,
    9801732070,
    9801732069,
    9801732068,
    9801732067,
    9801732066,
    9801732065,
    9801732064,
    9801732055,
    9801732063,
    9801732062,
    9801732082
  ],
  "tags": {
    "highway": "residential",
    "junction": "roundabout"
  }
},
{
  "type": "way",
  "id": 1067609558,
  "timestamp": "2023-10-14T00:49:31Z",
  "version": 3,
  "changeset": 142555699,
  "user": "NorthCrab",
  "uid": 15215305,
  "nodes": [
    650157115,
    9801732084,
    9801732101
  ],
  "tags": {
    "highway": "residential",
    "name": "רש\"י",
    "name:ar": "راشد",
    "name:en": "Rashi",
    "name:he": "רש\"י",
    "name:ru": "Раши",
    "oneway": "yes"
  }
},
{
  "type": "way",
  "id": 1067609559,
  "timestamp": "2023-10-14T00:49:31Z",
  "version": 3,
  "changeset": 142555699,
  "user": "NorthCrab",
  "uid": 15215305,
  "nodes": [
    9801732085,
    9801732086,
    650157115
  ],
  "tags": {
    "highway": "residential",
    "name": "רש\"י",
    "name:ar": "راشد",
    "name:en": "Rashi",
    "name:he": "רש\"י",
    "name:ru": "Раши",
    "oneway": "yes"
  }
},
{
  "type": "way",
  "id": 1067609560,
  "timestamp": "2023-10-14T00:49:31Z",
  "version": 3,
  "changeset": 142555699,
  "user": "NorthCrab",
  "uid": 15215305,
  "nodes": [
    9801732095,
    9801732087,
    9801732091
  ],
  "tags": {
    "highway": "residential",
    "name": "רבי פנחס בן יאיר",
    "name:en": "Rabi Pinhas Ben Yaeir",
    "name:he": "רבי פנחס בן יאיר",
    "oneway": "yes"
  }
},
{
  "type": "way",
  "id": 1067609561,
  "timestamp": "2023-10-14T00:49:31Z",
  "version": 3,
  "changeset": 142555699,
  "user": "NorthCrab",
  "uid": 15215305,
  "nodes": [
    9801732091,
    9801732088,
    9801732109
  ],
  "tags": {
    "highway": "residential",
    "name": "רבי פנחס בן יאיר",
    "name:en": "Rabi Pinhas Ben Yaeir",
    "name:he": "רבי פנחס בן יאיר",
    "oneway": "yes"
  }
},
{
  "type": "way",
  "id": 1067609562,
  "timestamp": "2023-10-14T00:49:31Z",
  "version": 3,
  "changeset": 142555699,
  "user": "NorthCrab",
  "uid": 15215305,
  "nodes": [
    9801732093,
    5032963564,
    9801732092
  ],
  "tags": {
    "highway": "residential",
    "name": "מאיר",
    "name:en": "Meir",
    "name:he": "מאיר",
    "oneway": "yes"
  }
},
{
  "type": "way",
  "id": 1067609563,
  "timestamp": "2023-10-14T00:49:31Z",
  "version": 3,
  "changeset": 142555699,
  "user": "NorthCrab",
  "uid": 15215305,
  "nodes": [
    9801732100,
    387211114,
    9801732093
  ],
  "tags": {
    "highway": "residential",
    "name": "מאיר",
    "name:en": "Meir",
    "name:he": "מאיר",
    "oneway": "yes"
  }
},
{
  "type": "way",
  "id": 1067609564,
  "timestamp": "2022-06-07T13:41:50Z",
  "version": 1,
  "changeset": 122073548,
  "user": "herdelkuz",
  "uid": 1363117,
  "nodes": [
    9801732112,
    9801732110,
    9801732109,
    9801732108,
    9801732107,
    9801732113,
    9801732106,
    9801732105,
    9801732104,
    9801732085,
    9801732103,
    9801732111,
    9801732102,
    9801732101,
    9801732100,
    9801732099,
    9801732098,
    9801732097,
    9801732092,
    9801732096,
    9801732095,
    9801732094,
    9801732112
  ],
  "tags": {
    "highway": "residential",
    "junction": "roundabout"
  }
},
{
  "type": "way",
  "id": 1067609565,
  "timestamp": "2023-10-14T00:49:31Z",
  "version": 3,
  "changeset": 142555699,
  "user": "NorthCrab",
  "uid": 15215305,
  "nodes": [
    9801732129,
    9801732118,
    9801732114,
    9801732119,
    9801732120,
    650145353
  ],
  "tags": {
    "highway": "residential",
    "name": "רבי פנחס בן יאיר",
    "name:en": "Rabi Pinhas Ben Yaeir",
    "name:he": "רבי פנחס בן יאיר",
    "oneway": "yes"
  }
},
{
  "type": "way",
  "id": 1067609566,
  "timestamp": "2023-10-14T00:49:31Z",
  "version": 3,
  "changeset": 142555699,
  "user": "NorthCrab",
  "uid": 15215305,
  "nodes": [
    650145353,
    9801732117,
    9801732116,
    9801732115,
    9801732144
  ],
  "tags": {
    "highway": "residential",
    "name": "רבי פנחס בן יאיר",
    "name:en": "Rabi Pinhas Ben Yaeir",
    "name:he": "רבי פנחס בן יאיר",
    "oneway": "yes"
  }
},
{
  "type": "way",
  "id": 1067609567,
  "timestamp": "2024-05-30T17:27:06Z",
  "version": 5,
  "changeset": 152047169,
  "user": "chaim255",
  "uid": 21297578,
  "nodes": [
    9801732134,
    9801732123,
    387210799,
    7223583888,
    387210800,
    387210801,
    9801732157,
    387008270
  ],
  "tags": {
    "highway": "tertiary",
    "name": "רשב\"י",
    "name:en": "Rashbi",
    "name:he": "רשבי",
    "oneway": "yes",
    "surface": "asphalt"
  }
},
{
  "type": "way",
  "id": 1067609568,
  "timestamp": "2024-05-30T17:27:06Z",
  "version": 5,
  "changeset": 152047169,
  "user": "chaim255",
  "uid": 21297578,
  "nodes": [
    387008269,
    387210847,
    9801732124,
    9801732130
  ],
  "tags": {
    "highway": "tertiary",
    "name": "רשב\"י",
    "name:en": "Rashbi",
    "name:he": "רשבי",
    "oneway": "yes",
    "surface": "asphalt"
  }
},
{
  "type": "way",
  "id": 1067609569,
  "timestamp": "2023-03-14T05:45:33Z",
  "version": 2,
  "changeset": 133650102,
  "user": "luja",
  "uid": 120636,
  "nodes": [
    9801732144,
    9801732143,
    9801732142,
    9801732141,
    9801732140,
    9801732139,
    9801732138,
    9801732137,
    9801732145,
    9801732136,
    9801732135,
    9801732134,
    9801732133,
    9801732132,
    9801732131,
    9801732130,
    9801732146,
    9801732129,
    9801732128,
    9801732127,
    9801732126,
    9801732125,
    9801732144
  ],
  "tags": {
    "highway": "tertiary",
    "junction": "roundabout",
    "surface": "asphalt"
  }
},
{
  "type": "way",
  "id": 1067609570,
  "timestamp": "2023-10-14T00:49:31Z",
  "version": 5,
  "changeset": 142555699,
  "user": "NorthCrab",
  "uid": 15215305,
  "nodes": [
    9801732155,
    9801732149,
    9801732150,
    9801732151
  ],
  "tags": {
    "highway": "tertiary",
    "name": "רבי שמעון בן שטח",
    "name:en": "Rabbi Shimon Ben Shetach",
    "name:he": "רבי שמעון בן שטח",
    "oneway": "yes",
    "source": "bing",
    "surface": "asphalt"
  }
},
{
  "type": "way",
  "id": 1067609571,
  "timestamp": "2023-10-14T00:49:31Z",
  "version": 4,
  "changeset": 142555699,
  "user": "NorthCrab",
  "uid": 15215305,
  "nodes": [
    9801732152,
    9801732153,
    9801732154,
    9801732155
  ],
  "tags": {
    "highway": "tertiary",
    "name": "רבי שמעון בן שטח",
    "name:en": "Rabbi Shimon Ben Shetach",
    "name:he": "רבי שמעון בן שטח",
    "oneway": "yes",
    "source": "bing",
    "surface": "asphalt"
  }
},
{
  "type": "way",
  "id": 1173070385,
  "timestamp": "2023-10-20T13:55:29Z",
  "version": 3,
  "changeset": 142871982,
  "user": "Aleksandar Matejevic",
  "uid": 8724788,
  "nodes": [
    5451994686,
    265312479,
    265312477,
    298521158,
    387002297,
    298521015
  ],
  "tags": {
    "highway": "primary",
    "maxspeed": "90",
    "oneway": "yes",
    "ref": "444",
    "surface": "asphalt"
  }
},
{
  "type": "way",
  "id": 1173070386,
  "timestamp": "2023-10-20T13:55:29Z",
  "version": 4,
  "changeset": 142871982,
  "user": "Aleksandar Matejevic",
  "uid": 8724788,
  "nodes": [
    298521015,
    10905168990,
    298521070,
    10899449769
  ],
  "tags": {
    "highway": "primary",
    "maxspeed": "90",
    "oneway": "yes",
    "ref": "444",
    "surface": "asphalt"
  }
},
{
  "type": "way",
  "id": 1182248033,
  "timestamp": "2023-10-14T00:46:04Z",
  "version": 3,
  "changeset": 142555582,
  "user": "NorthCrab",
  "uid": 15215305,
  "nodes": [
    387002252,
    10978869994,
    10905168982
  ],
  "tags": {
    "highway": "tertiary",
    "name": "רבי יהודה הנשיא",
    "name:ar": "رابي يهودا هناسي",
    "name:en": "Rabbi Yehuda HaNasi",
    "name:en1": "Rabi Yehuda Ha'Nassi",
    "name:en2": "Yehuda HaNasi",
    "name:en3": "Rabi Yehuda HaNasi",
    "name:he": "רבי יהודה הנשיא",
    "oneway": "yes"
  }
},
{
  "type": "way",
  "id": 1182248034,
  "timestamp": "2023-10-14T00:46:04Z",
  "version": 3,
  "changeset": 142555582,
  "user": "NorthCrab",
  "uid": 15215305,
  "nodes": [
    331161983,
    298521015
  ],
  "tags": {
    "highway": "tertiary",
    "name": "רבי יהודה הנשיא",
    "name:ar": "رابي يهودا هناسي",
    "name:en": "Rabbi Yehuda HaNasi",
    "name:en1": "Rabi Yehuda Ha'Nassi",
    "name:en2": "Yehuda HaNasi",
    "name:en3": "Rabi Yehuda HaNasi",
    "name:he": "רבי יהודה הנשיא",
    "oneway": "yes"
  }
},
{
  "type": "way",
  "id": 1182248035,
  "timestamp": "2023-10-14T00:46:04Z",
  "version": 3,
  "changeset": 142555582,
  "user": "NorthCrab",
  "uid": 15215305,
  "nodes": [
    298521169,
    10978869995,
    331161983
  ],
  "tags": {
    "highway": "tertiary",
    "name": "רבי יהודה הנשיא",
    "name:ar": "رابي يهودا هناسي",
    "name:en": "Rabbi Yehuda HaNasi",
    "name:en1": "Rabi Yehuda Ha'Nassi",
    "name:en2": "Yehuda HaNasi",
    "name:en3": "Rabi Yehuda HaNasi",
    "name:he": "רבי יהודה הנשיא",
    "oneway": "yes"
  }
},
{
  "type": "way",
  "id": 1288118184,
  "timestamp": "2024-05-30T17:27:06Z",
  "version": 1,
  "changeset": 152047169,
  "user": "chaim255",
  "uid": 21297578,
  "nodes": [
    11945641260,
    11945641261
  ],
  "tags": {
    "highway": "residential",
    "name": "דרך ישועות משה",
    "name:he": "ישועות משה"
  }
}

  ]
}
